{
  "type": "FeatureCollection",
  "features": [
    {
      "type": "Feature",
      "properties": {
        "id": "02-ranch-mustang-tank-01",
        "name": "Mustang Tank",
        "label": "Mustang Tank [map section]",
        "component": 1,
        "component_count": 1,
        "map_clipped": true,
        "source": "state-trails.geojson",
        "source_ids": [
          47947
        ],
        "published_horse_status": "HorseAllowed=Yes; current permission unverified",
        "direction": "Start at westernmost endpoint (southwest if equal longitude), follow source geometry",
        "start_wgs84": [
          -112.16392918063556,
          37.057579345404385
        ],
        "end_wgs84": [
          -112.158928540072,
          37.06131314170611
        ],
        "distance_miles": 0.38056339506287584,
        "ascent_ft": 0.0,
        "descent_ft": 0.0,
        "sample_spacing_m": 29.164638879241373,
        "valid_samples": 21,
        "sample_count": 22,
        "shorter_than_two_output_pixels": false,
        "gap_samples": 1,
        "gap_count": 1,
        "relative_zero": "first valid sample",
        "dem_file": "02-ranch-dem.tif",
        "dem_source": "USGS 3DEP ImageServer mosaic; native sources unresolved; not verified lidar",
        "dem_output_pixel_m": 15.002768287577597,
        "smoothing": "3-sample median then 3-sample moving mean, segment endpoints retained; 3m reversal threshold for totals",
        "csv": "sources/profiles/02-ranch-mustang-tank-01.csv",
        "shown_on_page": true
      },
      "geometry": {
        "coordinates": [
          [
            -112.16392918063556,
            37.057579345404385
          ],
          [
            -112.16347376567799,
            37.05786231826891
          ],
          [
            -112.163178301696,
            37.05803107166948
          ],
          [
            -112.162428248858,
            37.0584810033921
          ],
          [
            -112.16110978702402,
            37.059271810561896
          ],
          [
            -112.160787952099,
            37.059482278788906
          ],
          [
            -112.160602241584,
            37.0596211059915
          ],
          [
            -112.160267405341,
            37.0599380629577
          ],
          [
            -112.159904300914,
            37.0603192941707
          ],
          [
            -112.159113271424,
            37.0611094269794
          ],
          [
            -112.15894056581901,
            37.06129049003701
          ],
          [
            -112.158928540072,
            37.06131314170611
          ]
        ],
        "type": "LineString"
      }
    },
    {
      "type": "Feature",
      "properties": {
        "id": "02-ranch-paria-river-01",
        "name": "Paria River",
        "label": "Paria River [map section]",
        "component": 1,
        "component_count": 1,
        "map_clipped": true,
        "source": "state-trails.geojson",
        "source_ids": [
          1949
        ],
        "published_horse_status": "HorseAllowed=Yes; current permission unverified",
        "direction": "Start at westernmost endpoint (southwest if equal longitude), follow source geometry",
        "start_wgs84": [
          -111.96914516614179,
          37.26096233138706
        ],
        "end_wgs84": [
          -111.92504409976,
          37.2238960101163
        ],
        "distance_miles": 3.830973113314586,
        "ascent_ft": 0.0,
        "descent_ft": 130.19672504642838,
        "sample_spacing_m": 29.92890094210752,
        "valid_samples": 206,
        "sample_count": 207,
        "shorter_than_two_output_pixels": false,
        "gap_samples": 1,
        "gap_count": 1,
        "relative_zero": "first valid sample",
        "dem_file": "02-ranch-dem.tif",
        "dem_source": "USGS 3DEP ImageServer mosaic; native sources unresolved; not verified lidar",
        "dem_output_pixel_m": 15.002768287577597,
        "smoothing": "3-sample median then 3-sample moving mean, segment endpoints retained; 3m reversal threshold for totals",
        "csv": "sources/profiles/02-ranch-paria-river-01.csv",
        "shown_on_page": true
      },
      "geometry": {
        "coordinates": [
          [
            -111.96914516614179,
            37.26096233138706
          ],
          [
            -111.96914343281502,
            37.260958457865215
          ],
          [
            -111.968875575859,
            37.2605604425331
          ],
          [
            -111.968608325265,
            37.2602976275874
          ],
          [
            -111.968483251031,
            37.26021752737701
          ],
          [
            -111.96797850024998,
            37.26007743652719
          ],
          [
            -111.96776490153601,
            37.26004132506031
          ],
          [
            -111.96713093079602,
            37.260025774559985
          ],
          [
            -111.966962138252,
            37.26005419443751
          ],
          [
            -111.96596700793701,
            37.260368783534204
          ],
          [
            -111.96571058383901,
            37.26042315497149
          ],
          [
            -111.96475173557901,
            37.260576993867595
          ],
          [
            -111.964410245516,
            37.26059329710729
          ],
          [
            -111.96423235034301,
            37.260527143239
          ],
          [
            -111.963862284871,
            37.2603363628444
          ],
          [
            -111.96343444694499,
            37.26021365298811
          ],
          [
            -111.963296458531,
            37.2600930914017
          ],
          [
            -111.963205863435,
            37.2599748475425
          ],
          [
            -111.962912593139,
            37.259792453036994
          ],
          [
            -111.96257752692802,
            37.25951575283159
          ],
          [
            -111.96189528791,
            37.2591625530267
          ],
          [
            -111.961817615978,
            37.25908476526671
          ],
          [
            -111.96168126159901,
            37.2588262786477
          ],
          [
            -111.961296766488,
            37.25829759277389
          ],
          [
            -111.96115378164401,
            37.25796074040029
          ],
          [
            -111.961136083036,
            37.2578103552662
          ],
          [
            -111.961199635249,
            37.25730957910589
          ],
          [
            -111.96108505783,
            37.256812052133895
          ],
          [
            -111.960832270112,
            37.25626426802539
          ],
          [
            -111.96032552507099,
            37.25560857679359
          ],
          [
            -111.959822073253,
            37.25458969417559
          ],
          [
            -111.959562418813,
            37.25421042950439
          ],
          [
            -111.959547535525,
            37.2540149525728
          ],
          [
            -111.959602104586,
            37.2538720937698
          ],
          [
            -111.959588776282,
            37.2537991906008
          ],
          [
            -111.959470262445,
            37.25352343080691
          ],
          [
            -111.959284190807,
            37.2532554287931
          ],
          [
            -111.959182271548,
            37.2529542955069
          ],
          [
            -111.95899841246,
            37.2526826698148
          ],
          [
            -111.958559284508,
            37.2522878198492
          ],
          [
            -111.95832550604,
            37.252169829732594
          ],
          [
            -111.95779736761999,
            37.25160173317901
          ],
          [
            -111.957695039628,
            37.251534957904305
          ],
          [
            -111.956938698583,
            37.25111021855059
          ],
          [
            -111.95683485872598,
            37.251102044095994
          ],
          [
            -111.95670907302699,
            37.251141819473794
          ],
          [
            -111.95662564109598,
            37.25114249305079
          ],
          [
            -111.95566545524501,
            37.2510934613466
          ],
          [
            -111.955388987039,
            37.251165908786994
          ],
          [
            -111.954691297897,
            37.251009379954695
          ],
          [
            -111.95436146796501,
            37.25087412933159
          ],
          [
            -111.953200951518,
            37.2499595723879
          ],
          [
            -111.95278268154901,
            37.249695231694
          ],
          [
            -111.95266458453003,
            37.249450107473606
          ],
          [
            -111.95258903890898,
            37.249360578299
          ],
          [
            -111.951740557666,
            37.2485985320118
          ],
          [
            -111.951139307161,
            37.2481283407441
          ],
          [
            -111.950974755564,
            37.2480440322235
          ],
          [
            -111.950785902742,
            37.24782029572631
          ],
          [
            -111.950376745283,
            37.2474719551491
          ],
          [
            -111.95026239334001,
            37.24725474140569
          ],
          [
            -111.950084224182,
            37.246893819777696
          ],
          [
            -111.94974388486001,
            37.2463683460378
          ],
          [
            -111.949609190568,
            37.2462369242919
          ],
          [
            -111.948516896675,
            37.24535782818379
          ],
          [
            -111.947923625905,
            37.244710886525894
          ],
          [
            -111.947604386212,
            37.2444277070609
          ],
          [
            -111.94728389516699,
            37.243954346824694
          ],
          [
            -111.946778195764,
            37.2433661891833
          ],
          [
            -111.94652010169801,
            37.2431933864905
          ],
          [
            -111.94631818377799,
            37.24300481055881
          ],
          [
            -111.946169397615,
            37.2429176651145
          ],
          [
            -111.94608028294202,
            37.24273359595559
          ],
          [
            -111.94602794170298,
            37.2425149804836
          ],
          [
            -111.945956143854,
            37.24236322221309
          ],
          [
            -111.94545274503703,
            37.2416867961068
          ],
          [
            -111.94454583736702,
            37.2408376395077
          ],
          [
            -111.94421052322102,
            37.24070961437149
          ],
          [
            -111.943950143841,
            37.24053321839241
          ],
          [
            -111.94361582413002,
            37.2403943674853
          ],
          [
            -111.94343525736801,
            37.24028944389929
          ],
          [
            -111.94312514994901,
            37.240012488983794
          ],
          [
            -111.94259825839002,
            37.2394379122414
          ],
          [
            -111.94192636706701,
            37.2389881547358
          ],
          [
            -111.94158110048602,
            37.2386934474307
          ],
          [
            -111.941200189652,
            37.23843327456579
          ],
          [
            -111.94106883799199,
            37.23829640868319
          ],
          [
            -111.940936737136,
            37.238099156170605
          ],
          [
            -111.94081051126203,
            37.2377396096073
          ],
          [
            -111.940705032878,
            37.2375980301546
          ],
          [
            -111.94056399737802,
            37.2374981067864
          ],
          [
            -111.94012934663,
            37.2372672908662
          ],
          [
            -111.939364467996,
            37.237043510932104
          ],
          [
            -111.938485648849,
            37.2366313401383
          ],
          [
            -111.938215476934,
            37.2365721876626
          ],
          [
            -111.938019212112,
            37.23647278859859
          ],
          [
            -111.93792227940101,
            37.23638341851309
          ],
          [
            -111.937765055362,
            37.23615932055541
          ],
          [
            -111.93761170485801,
            37.23579277370341
          ],
          [
            -111.93760005191201,
            37.2356711803454
          ],
          [
            -111.93763690439899,
            37.23555190689319
          ],
          [
            -111.93777224996902,
            37.23537506757891
          ],
          [
            -111.937690139461,
            37.235025984314795
          ],
          [
            -111.93767289450199,
            37.234816911637694
          ],
          [
            -111.937632270888,
            37.2347226790513
          ],
          [
            -111.93738390288199,
            37.2345119212188
          ],
          [
            -111.93689475404001,
            37.2334278330273
          ],
          [
            -111.93668012046798,
            37.2331185563917
          ],
          [
            -111.93641647032199,
            37.2329475776253
          ],
          [
            -111.93606029459998,
            37.2325871389226
          ],
          [
            -111.93534411633301,
            37.23219439014719
          ],
          [
            -111.934955572514,
            37.2318594430395
          ],
          [
            -111.934512977065,
            37.23171159567429
          ],
          [
            -111.93437894573,
            37.2316296362174
          ],
          [
            -111.934279547144,
            37.2315222557548
          ],
          [
            -111.934107343697,
            37.2310873480472
          ],
          [
            -111.93380461504,
            37.2308544769191
          ],
          [
            -111.933317361643,
            37.2305581599856
          ],
          [
            -111.932894904626,
            37.2301225185932
          ],
          [
            -111.932513829401,
            37.2295684700968
          ],
          [
            -111.931969595866,
            37.22912927744859
          ],
          [
            -111.93107483880901,
            37.228326879425
          ],
          [
            -111.930203043589,
            37.227648684383496
          ],
          [
            -111.929994532933,
            37.227375492584805
          ],
          [
            -111.929797512628,
            37.2270281168469
          ],
          [
            -111.92941643291202,
            37.226562392431305
          ],
          [
            -111.929286978493,
            37.2262091676269
          ],
          [
            -111.929112418765,
            37.2258544934215
          ],
          [
            -111.92898801737,
            37.225637336118695
          ],
          [
            -111.928812035609,
            37.22544221639449
          ],
          [
            -111.92864284061999,
            37.22515699533109
          ],
          [
            -111.928445102561,
            37.2251178936399
          ],
          [
            -111.928329235161,
            37.225044888979205
          ],
          [
            -111.92804393022699,
            37.2247586843059
          ],
          [
            -111.92760874947201,
            37.2244754563525
          ],
          [
            -111.926953119452,
            37.22423090819179
          ],
          [
            -111.926321188786,
            37.2241727559989
          ],
          [
            -111.925817903156,
            37.22403427410019
          ],
          [
            -111.92504409976,
            37.2238960101163
          ]
        ],
        "type": "LineString"
      }
    },
    {
      "type": "Feature",
      "properties": {
        "id": "02-ranch-petrified-hollow-01",
        "name": "Petrified Hollow",
        "label": "Petrified Hollow [map section]",
        "component": 1,
        "component_count": 1,
        "map_clipped": true,
        "source": "state-trails.geojson",
        "source_ids": [
          47950
        ],
        "published_horse_status": "HorseAllowed=Yes; current permission unverified",
        "direction": "Start at westernmost endpoint (southwest if equal longitude), follow source geometry",
        "start_wgs84": [
          -112.17146648857229,
          37.07193516688436
        ],
        "end_wgs84": [
          -112.15890534557201,
          37.0613326915699
        ],
        "distance_miles": 1.0905273088379965,
        "ascent_ft": 0.0,
        "descent_ft": 68.37508124031602,
        "sample_spacing_m": 29.746331886687738,
        "valid_samples": 59,
        "sample_count": 60,
        "shorter_than_two_output_pixels": false,
        "gap_samples": 1,
        "gap_count": 1,
        "relative_zero": "first valid sample",
        "dem_file": "02-ranch-dem.tif",
        "dem_source": "USGS 3DEP ImageServer mosaic; native sources unresolved; not verified lidar",
        "dem_output_pixel_m": 15.002768287577597,
        "smoothing": "3-sample median then 3-sample moving mean, segment endpoints retained; 3m reversal threshold for totals",
        "csv": "sources/profiles/02-ranch-petrified-hollow-01.csv",
        "shown_on_page": true
      },
      "geometry": {
        "coordinates": [
          [
            -112.17146648857229,
            37.07193516688436
          ],
          [
            -112.17145003374802,
            37.0719405309456
          ],
          [
            -112.171261442336,
            37.0719975997632
          ],
          [
            -112.171196000068,
            37.07201740275179
          ],
          [
            -112.171024856633,
            37.0720438800756
          ],
          [
            -112.17082581242401,
            37.07203908361029
          ],
          [
            -112.17069548574102,
            37.072022341851
          ],
          [
            -112.17050359122301,
            37.071956630517604
          ],
          [
            -112.17033209295398,
            37.0718456486194
          ],
          [
            -112.170154070221,
            37.07167614110821
          ],
          [
            -112.16992762469998,
            37.07146654889559
          ],
          [
            -112.169845502514,
            37.07138398050011
          ],
          [
            -112.169763025493,
            37.07132394959759
          ],
          [
            -112.16969461159701,
            37.0712412462971
          ],
          [
            -112.169571417537,
            37.071093731069
          ],
          [
            -112.169502837454,
            37.0709772274518
          ],
          [
            -112.16942744095402,
            37.0708517763734
          ],
          [
            -112.16937924005,
            37.0707576058596
          ],
          [
            -112.16936559015,
            37.0706698559575
          ],
          [
            -112.169331384999,
            37.070548505673
          ],
          [
            -112.169262776169,
            37.0704072141723
          ],
          [
            -112.169132515961,
            37.070280049804694
          ],
          [
            -112.168954345006,
            37.07016913139519
          ],
          [
            -112.16881029206502,
            37.0701052003326
          ],
          [
            -112.16867306632099,
            37.0700051463982
          ],
          [
            -112.16854975548,
            37.0699184750754
          ],
          [
            -112.16844016460901,
            37.0697866000093
          ],
          [
            -112.168398892411,
            37.0696856002371
          ],
          [
            -112.168388485429,
            37.0696437775045
          ],
          [
            -112.168371861206,
            37.0695769674529
          ],
          [
            -112.168357135123,
            37.06944755031649
          ],
          [
            -112.16833581361,
            37.069377452978806
          ],
          [
            -112.16827987461902,
            37.0693239208922
          ],
          [
            -112.168201785868,
            37.0692931419861
          ],
          [
            -112.16815789598002,
            37.06929177151769
          ],
          [
            -112.16806682387801,
            37.069294470881495
          ],
          [
            -112.16787484941001,
            37.0693188963214
          ],
          [
            -112.167685763026,
            37.0693117429376
          ],
          [
            -112.167192088472,
            37.069247196877996
          ],
          [
            -112.167091220242,
            37.0692244988376
          ],
          [
            -112.16695914364098,
            37.0691797349302
          ],
          [
            -112.166767568923,
            37.0690710978375
          ],
          [
            -112.16656870617402,
            37.0689396499298
          ],
          [
            -112.166282636773,
            37.06876939692621
          ],
          [
            -112.166119903366,
            37.068646606460504
          ],
          [
            -112.165982941726,
            37.0685172536803
          ],
          [
            -112.165818824016,
            37.0683773503837
          ],
          [
            -112.16567688660702,
            37.06829040984109
          ],
          [
            -112.16553868529301,
            37.068226868557886
          ],
          [
            -112.165417654376,
            37.0681829892883
          ],
          [
            -112.164981904988,
            37.068080907187706
          ],
          [
            -112.16489823859699,
            37.0680528845279
          ],
          [
            -112.164818960477,
            37.068017608002
          ],
          [
            -112.164668546566,
            37.06792230216541
          ],
          [
            -112.16465085604298,
            37.0679110930793
          ],
          [
            -112.164645874885,
            37.0679067808994
          ],
          [
            -112.16429976209001,
            37.0676071690946
          ],
          [
            -112.16424607607398,
            37.06755361210451
          ],
          [
            -112.16419241071901,
            37.0674778754687
          ],
          [
            -112.16419089256601,
            37.0674757337023
          ],
          [
            -112.164168767959,
            37.06742637485719
          ],
          [
            -112.16414960240199,
            37.067349946391495
          ],
          [
            -112.164149604199,
            37.0673495328034
          ],
          [
            -112.16413489877802,
            37.0672960164885
          ],
          [
            -112.164127823647,
            37.066994121433
          ],
          [
            -112.164127924258,
            37.066851642032084
          ],
          [
            -112.164127948513,
            37.06681834975439
          ],
          [
            -112.16410735193999,
            37.0667126388269
          ],
          [
            -112.164045667324,
            37.066609584203604
          ],
          [
            -112.164032825907,
            37.0665964840113
          ],
          [
            -112.163942829089,
            37.06650468010021
          ],
          [
            -112.163717249544,
            37.0663472079098
          ],
          [
            -112.163627675833,
            37.0662846778378
          ],
          [
            -112.16329196103801,
            37.066076142345395
          ],
          [
            -112.163031092974,
            37.0659119427761
          ],
          [
            -112.16274329791001,
            37.0656646284746
          ],
          [
            -112.16246235250001,
            37.0654285135028
          ],
          [
            -112.162215750581,
            37.06518529993439
          ],
          [
            -112.161968721065,
            37.0649601184551
          ],
          [
            -112.16185507969,
            37.06487993211669
          ],
          [
            -112.16152835972599,
            37.064594881954
          ],
          [
            -112.161108960574,
            37.06416181887351
          ],
          [
            -112.16094420056801,
            37.06397864875979
          ],
          [
            -112.16069957763798,
            37.06364753130139
          ],
          [
            -112.160661713649,
            37.063606822054
          ],
          [
            -112.160659769695,
            37.063602818581394
          ],
          [
            -112.16061186074401,
            37.0635266694097
          ],
          [
            -112.16052245411899,
            37.063426137275194
          ],
          [
            -112.160406072882,
            37.06337769906949
          ],
          [
            -112.160227855214,
            37.0632847952313
          ],
          [
            -112.160063170667,
            37.0631804929678
          ],
          [
            -112.159932998494,
            37.0630803589325
          ],
          [
            -112.15982331150302,
            37.06298678520929
          ],
          [
            -112.159748240193,
            37.062904140200004
          ],
          [
            -112.159672858066,
            37.062801217317705
          ],
          [
            -112.159576545192,
            37.062662443245394
          ],
          [
            -112.159453403235,
            37.062469848128195
          ],
          [
            -112.159309284717,
            37.0622616835063
          ],
          [
            -112.159234163102,
            37.06212946179709
          ],
          [
            -112.159131447935,
            37.062008778130696
          ],
          [
            -112.15906276274902,
            37.0618607202174
          ],
          [
            -112.15902182472499,
            37.061757460436795
          ],
          [
            -112.15896006734499,
            37.06160257336959
          ],
          [
            -112.15895311528301,
            37.06149222219881
          ],
          [
            -112.15891632208599,
            37.06136934468359
          ],
          [
            -112.158928540072,
            37.06131314170611
          ],
          [
            -112.158936311398,
            37.0612985043946
          ],
          [
            -112.15890534557201,
            37.0613326915699
          ]
        ],
        "type": "LineString"
      }
    }
  ]
}