{
  "type": "FeatureCollection",
  "features": [
    {
      "type": "Feature",
      "geometry": {
        "type": "LineString",
        "coordinates": [
          [
            -90.4472631,
            48.055741
          ],
          [
            -90.4506105,
            48.0568884
          ],
          [
            -90.454387,
            48.0575768
          ],
          [
            -90.4591936,
            48.0586668
          ],
          [
            -90.4619401,
            48.059642
          ],
          [
            -90.4632276,
            48.0603304
          ],
          [
            -90.4652875,
            48.0613056
          ],
          [
            -90.4667467,
            48.0629691
          ],
          [
            -90.4671758,
            48.064059
          ],
          [
            -90.4680341,
            48.0658945
          ],
          [
            -90.4678625,
            48.0677299
          ],
          [
            -90.4677766,
            48.068705
          ],
          [
            -90.4684633,
            48.0693359
          ],
          [
            -90.4684633,
            48.0699668
          ],
          [
            -90.4666608,
            48.0714579
          ],
          [
            -90.4516405,
            48.0845613
          ],
          [
            -90.4456323,
            48.0905241
          ],
          [
            -90.4446023,
            48.0930466
          ],
          [
            -90.4423707,
            48.0944224
          ],
          [
            -90.4303544,
            48.097174
          ],
          [
            -90.421943,
            48.0982059
          ],
          [
            -90.4188531,
            48.0994669
          ],
          [
            -90.4155916,
            48.1010719
          ],
          [
            -90.4125017,
            48.1014158
          ],
          [
            -90.410785,
            48.1017597
          ]
        ]
      },
      "properties": {
        "name": "Day 1",
        "segment": 1,
        "source": "KML2008",
        "status": "Historical supplied line; not a surveyed navigation track"
      }
    },
    {
      "type": "Feature",
      "geometry": {
        "type": "LineString",
        "coordinates": [
          [
            -90.4062877,
            48.1020817
          ],
          [
            -90.4053865,
            48.1021677
          ],
          [
            -90.4017387,
            48.1023969
          ],
          [
            -90.3982626,
            48.102311
          ],
          [
            -90.3967176,
            48.1018238
          ],
          [
            -90.3963314,
            48.1011933
          ],
          [
            -90.3951298,
            48.1008493
          ],
          [
            -90.3942714,
            48.1005054
          ],
          [
            -90.3937994,
            48.1001615
          ],
          [
            -90.392984,
            48.1000182
          ],
          [
            -90.3914819,
            48.0998749
          ],
          [
            -90.3905378,
            48.0997316
          ],
          [
            -90.3901516,
            48.099617
          ],
          [
            -90.3896366,
            48.099273
          ],
          [
            -90.389422,
            48.0990151
          ],
          [
            -90.3886066,
            48.0984705
          ],
          [
            -90.3876625,
            48.0980119
          ],
          [
            -90.3868471,
            48.0977827
          ],
          [
            -90.3865467,
            48.0968082
          ],
          [
            -90.3862463,
            48.0960916
          ],
          [
            -90.3858171,
            48.0951457
          ],
          [
            -90.3846155,
            48.0941425
          ],
          [
            -90.3831993,
            48.0936552
          ],
          [
            -90.3824268,
            48.0930533
          ],
          [
            -90.3817402,
            48.0927093
          ],
          [
            -90.3810106,
            48.092566
          ],
          [
            -90.3798519,
            48.0920787
          ],
          [
            -90.3784786,
            48.0919354
          ],
          [
            -90.3773628,
            48.0918494
          ],
          [
            -90.3764616,
            48.0913907
          ],
          [
            -90.3754316,
            48.0909894
          ],
          [
            -90.3745304,
            48.0907028
          ],
          [
            -90.3734575,
            48.0907028
          ],
          [
            -90.3725134,
            48.0908748
          ],
          [
            -90.3723846,
            48.0913047
          ],
          [
            -90.3725134,
            48.091964
          ],
          [
            -90.3729425,
            48.092394
          ],
          [
            -90.3733288,
            48.0933113
          ],
          [
            -90.3730713,
            48.0938272
          ],
          [
            -90.3722988,
            48.0936839
          ],
          [
            -90.3716121,
            48.0936552
          ],
          [
            -90.3707109,
            48.0936839
          ],
          [
            -90.369681,
            48.0937126
          ],
          [
            -90.368651,
            48.0938272
          ],
          [
            -90.3677498,
            48.0943145
          ],
          [
            -90.3667198,
            48.0944291
          ],
          [
            -90.3570638,
            48.0943432
          ],
          [
            -90.3544031,
            48.0948304
          ],
          [
            -90.352944,
            48.0948878
          ],
          [
            -90.3511844,
            48.0946298
          ],
          [
            -90.3477512,
            48.0941425
          ],
          [
            -90.3449188,
            48.0941712
          ],
          [
            -90.3438459,
            48.0945151
          ],
          [
            -90.3433309,
            48.0951171
          ],
          [
            -90.3406702,
            48.0956043
          ],
          [
            -90.3386532,
            48.0962636
          ],
          [
            -90.3377949,
            48.0971234
          ],
          [
            -90.337237,
            48.0985852
          ],
          [
            -90.3353487,
            48.1005198
          ],
          [
            -90.3324304,
            48.1017235
          ],
          [
            -90.3269373,
            48.1026979
          ],
          [
            -90.3205,
            48.103271
          ],
          [
            -90.3131185,
            48.1051625
          ],
          [
            -90.3086553,
            48.1059075
          ],
          [
            -90.3062521,
            48.105449
          ],
          [
            -90.3043638,
            48.1049905
          ],
          [
            -90.3039346,
            48.1042454
          ],
          [
            -90.3020464,
            48.1035003
          ],
          [
            -90.2986131,
            48.1025832
          ],
          [
            -90.2979265,
            48.1022393
          ],
          [
            -90.2948795,
            48.1003191
          ],
          [
            -90.2920471,
            48.0988861
          ],
          [
            -90.2891718,
            48.0988574
          ],
          [
            -90.2852236,
            48.0996026
          ],
          [
            -90.2822624,
            48.0999752
          ],
          [
            -90.2803741,
            48.1002905
          ]
        ]
      },
      "properties": {
        "name": "Day 2",
        "segment": 2,
        "source": "KML2008",
        "status": "Historical supplied line; not a surveyed navigation track"
      }
    },
    {
      "type": "Feature",
      "geometry": {
        "type": "LineString",
        "coordinates": [
          [
            -90.2803741,
            48.1002905
          ],
          [
            -90.2881033,
            48.0983093
          ],
          [
            -90.2890474,
            48.0976788
          ],
          [
            -90.2906782,
            48.0964176
          ],
          [
            -90.2909357,
            48.0942966
          ],
          [
            -90.290249,
            48.0929207
          ],
          [
            -90.2882749,
            48.0918888
          ],
          [
            -90.2747995,
            48.0863562
          ],
          [
            -90.268963,
            48.0831453
          ],
          [
            -90.2620966,
            48.0840627
          ],
          [
            -90.2569467,
            48.0849801
          ],
          [
            -90.2452737,
            48.0847508
          ],
          [
            -90.2411539,
            48.0849801
          ],
          [
            -90.2270776,
            48.0861268
          ],
          [
            -90.2184946,
            48.0868149
          ],
          [
            -90.2095682,
            48.0847508
          ],
          [
            -90.1937752,
            48.0879062
          ],
          [
            -90.1867374,
            48.0869297
          ],
          [
            -90.1826174,
            48.087675
          ],
          [
            -90.1783258,
            48.0877322
          ],
          [
            -90.1616747,
            48.0799342
          ],
          [
            -90.1521473,
            48.0782142
          ],
          [
            -90.1433069,
            48.0783286
          ],
          [
            -90.1221477,
            48.0776121
          ]
        ]
      },
      "properties": {
        "name": "Day 3",
        "segment": 3,
        "source": "KML2008",
        "status": "Historical supplied line; not a surveyed navigation track"
      }
    },
    {
      "type": "Feature",
      "geometry": {
        "type": "LineString",
        "coordinates": [
          [
            -90.1221477,
            48.0776121
          ],
          [
            -90.1277296,
            48.0751916
          ],
          [
            -90.1297895,
            48.0779443
          ],
          [
            -90.1404325,
            48.0786324
          ],
          [
            -90.148329,
            48.0786324
          ],
          [
            -90.1555387,
            48.0786324
          ],
          [
            -90.1616747,
            48.0799342
          ],
          [
            -90.1665251,
            48.0800086
          ],
          [
            -90.1713316,
            48.0717506
          ],
          [
            -90.1730482,
            48.0648679
          ],
          [
            -90.1967375,
            48.0646385
          ],
          [
            -90.2272932,
            48.0637207
          ],
          [
            -90.2458326,
            48.0637207
          ],
          [
            -90.2544157,
            48.064409
          ],
          [
            -90.2585356,
            48.0676211
          ],
          [
            -90.2660887,
            48.0692271
          ],
          [
            -90.2736418,
            48.0694565
          ],
          [
            -90.2825682,
            48.070833
          ],
          [
            -90.2870314,
            48.073127
          ],
          [
            -90.2746717,
            48.0823023
          ],
          [
            -90.277075,
            48.0850546
          ],
          [
            -90.2870314,
            48.0891827
          ],
          [
            -90.2918379,
            48.0905586
          ],
          [
            -90.2990477,
            48.088036
          ],
          [
            -90.3031675,
            48.088036
          ],
          [
            -90.310034,
            48.088036
          ],
          [
            -90.3223936,
            48.0878067
          ],
          [
            -90.3340666,
            48.0871187
          ],
          [
            -90.3450097,
            48.0859532
          ]
        ]
      },
      "properties": {
        "name": "Fourth Day",
        "segment": 4,
        "source": "KML2008",
        "status": "Historical supplied line; not a surveyed navigation track"
      }
    },
    {
      "type": "Feature",
      "geometry": {
        "type": "LineString",
        "coordinates": [
          [
            -90.3450097,
            48.0859532
          ],
          [
            -90.352063,
            48.0816662
          ],
          [
            -90.3561829,
            48.0791432
          ],
          [
            -90.3611611,
            48.075473
          ],
          [
            -90.3645943,
            48.0745554
          ],
          [
            -90.3685425,
            48.0751927
          ]
        ]
      },
      "properties": {
        "name": "Last Day",
        "segment": 5,
        "source": "KML2008",
        "status": "Historical supplied line; not a surveyed navigation track"
      }
    }
  ]
}