{
  "type": "FeatureCollection",
  "features": [
    {
      "type": "Feature",
      "geometry": {
        "type": "Polygon",
        "coordinates": [
          [
            [
              -90.52454522238502,
              48.054687376006655
            ],
            [
              -90.35026877796662,
              48.050797888870584
            ],
            [
              -90.34736666831625,
              48.107242530130534
            ],
            [
              -90.52183349555034,
              48.1111396820839
            ],
            [
              -90.52454522238502,
              48.054687376006655
            ]
          ]
        ]
      },
      "properties": {
        "sheet": "02"
      }
    },
    {
      "type": "Feature",
      "geometry": {
        "type": "Polygon",
        "coordinates": [
          [
            [
              -90.41907686766208,
              48.06572706576676
            ],
            [
              -90.20456086121047,
              48.060704749002426
            ],
            [
              -90.20079012519804,
              48.13016643514975
            ],
            [
              -90.41559467223877,
              48.13520093540424
            ],
            [
              -90.41907686766208,
              48.06572706576676
            ]
          ]
        ]
      },
      "properties": {
        "sheet": "03"
      }
    },
    {
      "type": "Feature",
      "geometry": {
        "type": "Polygon",
        "coordinates": [
          [
            [
              -90.2860766218404,
              48.05145617121225
            ],
            [
              -90.07566440735773,
              48.04628929809005
            ],
            [
              -90.07179600458022,
              48.11444107919975
            ],
            [
              -90.28248569162582,
              48.11962024916099
            ],
            [
              -90.2860766218404,
              48.05145617121225
            ]
          ]
        ]
      },
      "properties": {
        "sheet": "04"
      }
    },
    {
      "type": "Feature",
      "geometry": {
        "type": "Polygon",
        "coordinates": [
          [
            [
              -90.40262456749089,
              48.04032054684716
            ],
            [
              -90.16543971624199,
              48.03470945783067
            ],
            [
              -90.16121301533867,
              48.1115491475375
            ],
            [
              -90.39875052394113,
              48.1171752949544
            ],
            [
              -90.40262456749089,
              48.04032054684716
            ]
          ]
        ]
      },
      "properties": {
        "sheet": "05"
      }
    }
  ]
}