{
  "type": "FeatureCollection",
  "features": [
    {
      "type": "Feature",
      "properties": {
        "name": "Attempted descent",
        "evidence": "Recorded GPS sequence",
        "color": "#db7600"
      },
      "geometry": {
        "type": "LineString",
        "coordinates": [
          [
            -77.38811122253537,
            -9.41763063892722
          ],
          [
            -77.38817542791367,
            -9.417741196230052
          ],
          [
            -77.38815983757377,
            -9.417769359424714
          ],
          [
            -77.38816453143954,
            -9.417795343324553
          ],
          [
            -77.3882199358195,
            -9.41789165139198
          ],
          [
            -77.38823024556041,
            -9.417967172339562
          ],
          [
            -77.3882341850549,
            -9.417990809306508
          ],
          [
            -77.38825882785022,
            -9.418059373274449
          ],
          [
            -77.38832529634237,
            -9.418139671906832
          ],
          [
            -77.38834993913771,
            -9.418214773759239
          ],
          [
            -77.38836728967726,
            -9.418273027986297
          ],
          [
            -77.38837852142753,
            -9.41829750314355
          ],
          [
            -77.3883864004165,
            -9.418314015492797
          ],
          [
            -77.38842294551432,
            -9.418356176465748
          ],
          [
            -77.38854029215872,
            -9.418465895578267
          ],
          [
            -77.3885883204639,
            -9.41851945593953
          ],
          [
            -77.3885967861861,
            -9.418571507558227
          ],
          [
            -77.38862763158977,
            -9.418652728199957
          ],
          [
            -77.38862964324653,
            -9.41871366463601
          ],
          [
            -77.38862964324653,
            -9.41871366463601
          ],
          [
            -77.38860198296607,
            -9.418693715706475
          ],
          [
            -77.38859217613935,
            -9.418743839487428
          ],
          [
            -77.38860449753702,
            -9.418769907206293
          ],
          [
            -77.38862134516239,
            -9.418790023773916
          ],
          [
            -77.3886657692492,
            -9.418873926624657
          ],
          [
            -77.3886707983911,
            -9.418896390125157
          ],
          [
            -77.38868781365454,
            -9.418918099254366
          ],
          [
            -77.38871145062149,
            -9.418942155316476
          ],
          [
            -77.38874137401581,
            -9.418986076489087
          ],
          [
            -77.38878345116973,
            -9.419052461162217
          ],
          [
            -77.38879124633968,
            -9.419078528881078
          ],
          [
            -77.38878227770329,
            -9.419074757024639
          ],
          [
            -77.38877758383751,
            -9.419071320444345
          ],
          [
            -77.388781523332,
            -9.419073667377234
          ],
          [
            -77.38876040093601,
            -9.419100824743508
          ],
          [
            -77.38877004012465,
            -9.41908297128975
          ],
          [
            -77.38876920193434,
            -9.419128317385923
          ],
          [
            -77.38879786804318,
            -9.419203335419306
          ],
          [
            -77.38881018944085,
            -9.41930048167706
          ],
          [
            -77.38885360769928,
            -9.419377762824304
          ],
          [
            -77.38886224105954,
            -9.419393353164189
          ]
        ]
      }
    },
    {
      "type": "Feature",
      "properties": {
        "name": "Backtrack",
        "evidence": "Recorded GPS sequence",
        "color": "#007aa6"
      },
      "geometry": {
        "type": "LineString",
        "coordinates": [
          [
            -77.38886224105954,
            -9.419393353164189
          ],
          [
            -77.38886567763984,
            -9.41931783221662
          ],
          [
            -77.38882904872298,
            -9.41925731487572
          ],
          [
            -77.38883407786489,
            -9.41924281418324
          ],
          [
            -77.388831730932,
            -9.419249938800927
          ],
          [
            -77.38882971927524,
            -9.419251279905431
          ],
          [
            -77.38883298821747,
            -9.419248765334485
          ],
          [
            -77.3888301383704,
            -9.419250776991243
          ],
          [
            -77.38880633376539,
            -9.419270642101763
          ],
          [
            -77.38880909979343,
            -9.419269803911442
          ],
          [
            -77.38881370984018,
            -9.419260583817952
          ],
          [
            -77.38881865516305,
            -9.419260751456024
          ],
          [
            -77.38881865516305,
            -9.419260751456024
          ],
          [
            -77.38881966099143,
            -9.419268295168878
          ],
          [
            -77.38882251083851,
            -9.419265864416964
          ],
          [
            -77.38882862962782,
            -9.419277347624302
          ],
          [
            -77.38875344395638,
            -9.419282460585226
          ],
          [
            -77.38871262408793,
            -9.419266283512107
          ],
          [
            -77.38865881226957,
            -9.419230660423635
          ],
          [
            -77.38865663297474,
            -9.41917609423398
          ],
          [
            -77.38867775537074,
            -9.419098645448683
          ],
          [
            -77.38868789747357,
            -9.419072158634668
          ],
          [
            -77.38870281726122,
            -9.419023124501111
          ],
          [
            -77.3886948544532,
            -9.418894713744518
          ],
          [
            -77.3886614944786,
            -9.41883511841297
          ],
          [
            -77.38864188082516,
            -9.418842913582925
          ],
          [
            -77.38856728188694,
            -9.418817684054378
          ],
          [
            -77.38856468349695,
            -9.418811229988924
          ],
          [
            -77.38857071846724,
            -9.418746437877411
          ],
          [
            -77.38859041593969,
            -9.418698744848367
          ],
          [
            -77.38860927522182,
            -9.418629929423325
          ],
          [
            -77.38860114477575,
            -9.418560108169915
          ],
          [
            -77.38857725635171,
            -9.418528676033013
          ],
          [
            -77.38857557997108,
            -9.418525826185947
          ],
          [
            -77.38861195743084,
            -9.418523227795951
          ],
          [
            -77.38860516808927,
            -9.418521635234358
          ],
          [
            -77.38855202682316,
            -9.418475450947888
          ],
          [
            -77.38851313479245,
            -9.418462291359898
          ],
          [
            -77.38850760273635,
            -9.418454747647045
          ],
          [
            -77.38844071514904,
            -9.418387105688451
          ],
          [
            -77.38841858692467,
            -9.41831317730248
          ],
          [
            -77.38840249367058,
            -9.41828342154623
          ],
          [
            -77.38837500102818,
            -9.418249893933528
          ],
          [
            -77.38834365271032,
            -9.418197926133864
          ],
          [
            -77.38828422501683,
            -9.418186945840722
          ],
          [
            -77.38825857639313,
            -9.418144198134549
          ],
          [
            -77.38825581036508,
            -9.418095918372282
          ],
          [
            -77.38826729357243,
            -9.41802743822336
          ],
          [
            -77.3882447462529,
            -9.41801570355892
          ],
          [
            -77.388213314116,
            -9.417989300563935
          ],
          [
            -77.38821046426892,
            -9.417906319722531
          ],
          [
            -77.38820652477443,
            -9.417889891192317
          ],
          [
            -77.38821574486794,
            -9.41781680099667
          ],
          [
            -77.38820778205991,
            -9.417737675830717
          ],
          [
            -77.38818724639714,
            -9.417670704424381
          ],
          [
            -77.38818967714906,
            -9.417651593685157
          ],
          [
            -77.38822680898011,
            -9.417629465460783
          ],
          [
            -77.38823686726391,
            -9.41761379130185
          ],
          [
            -77.38825446926057,
            -9.417591746896502
          ],
          [
            -77.38825907930732,
            -9.41760314628482
          ],
          [
            -77.38827508874238,
            -9.417589483782654
          ],
          [
            -77.38829118199648,
            -9.417577581480153
          ],
          [
            -77.38832169212401,
            -9.417552351951601
          ],
          [
            -77.38833124749362,
            -9.417541623115543
          ]
        ]
      }
    },
    {
      "type": "Feature",
      "properties": {
        "name": "Westward continuation",
        "evidence": "Recorded GPS sequence",
        "color": "#713c91"
      },
      "geometry": {
        "type": "LineString",
        "coordinates": [
          [
            -77.38833124749362,
            -9.417541623115543
          ],
          [
            -77.38833786919713,
            -9.41755117848516
          ],
          [
            -77.38833845593035,
            -9.417558806017043
          ],
          [
            -77.38836117088795,
            -9.417587723582974
          ],
          [
            -77.38836485892534,
            -9.417602391913528
          ],
          [
            -77.38838807679713,
            -9.417601469904191
          ],
          [
            -77.38841028884055,
            -9.41760046407581
          ],
          [
            -77.38843484781682,
            -9.417604152113205
          ],
          [
            -77.38843400962651,
            -9.417618149891489
          ],
          [
            -77.38846141844988,
            -9.417634913697839
          ],
          [
            -77.38849955610931,
            -9.417691826820374
          ],
          [
            -77.38850886002183,
            -9.417716134339578
          ],
          [
            -77.38853341899812,
            -9.417753182351593
          ],
          [
            -77.38857625052334,
            -9.417855106294152
          ],
          [
            -77.38858019001782,
            -9.417888466268774
          ],
          [
            -77.38859460689127,
            -9.417900620028377
          ],
          [
            -77.3886004742235,
            -9.41793867386878
          ],
          [
            -77.38863031379879,
            -9.418018721044065
          ],
          [
            -77.38866317085922,
            -9.41813489422202
          ],
          [
            -77.3887070082128,
            -9.418221982195979
          ],
          [
            -77.38871907815337,
            -9.41823933273554
          ],
          [
            -77.38872293382883,
            -9.418347710743552
          ],
          [
            -77.38875159993768,
            -9.418382579460747
          ],
          [
            -77.38878294825554,
            -9.418367659673091
          ],
          [
            -77.38879619166255,
            -9.418348548933867
          ],
          [
            -77.38880759105086,
            -9.41832901909947
          ],
          [
            -77.38886894658208,
            -9.418319463729864
          ],
          [
            -77.38890197128057,
            -9.418352991342545
          ],
          [
            -77.38895544782281,
            -9.418388865888108
          ],
          [
            -77.38897916860878,
            -9.41845022141934
          ],
          [
            -77.38906315527856,
            -9.418520042672755
          ],
          [
            -77.38908737897874,
            -9.418536555022005
          ],
          [
            -77.38912845030427,
            -9.418552396818999
          ],
          [
            -77.38913029432297,
            -9.418570417910809
          ],
          [
            -77.38914420828223,
            -9.418594473972918
          ],
          [
            -77.38913054578006,
            -9.418636634945866
          ],
          [
            -77.38914177753031,
            -9.418681226670751
          ],
          [
            -77.38918863236904,
            -9.418788263574243
          ],
          [
            -77.38918754272163,
            -9.418814415112134
          ],
          [
            -77.38922132179142,
            -9.418922709301112
          ],
          [
            -77.38923138007523,
            -9.41893410868943
          ],
          [
            -77.38924412056804,
            -9.418949112296099
          ],
          [
            -77.38924529403448,
            -9.418986747041348
          ],
          [
            -77.38926096819341,
            -9.41900870762766
          ],
          [
            -77.38927798345685,
            -9.419020358473055
          ],
          [
            -77.38938258960843,
            -9.419093867763873
          ],
          [
            -77.38942106254399,
            -9.41910694353282
          ],
          [
            -77.38950110971929,
            -9.419152373448007
          ],
          [
            -77.38957285881042,
            -9.419224625453356
          ],
          [
            -77.38958325237036,
            -9.419221524149174
          ],
          [
            -77.38960730843246,
            -9.419220099225633
          ],
          [
            -77.38965114578605,
            -9.41919386386872
          ],
          [
            -77.38967780023813,
            -9.419182632118462
          ],
          [
            -77.38972725346684,
            -9.41916670650244
          ],
          [
            -77.38980369642377,
            -9.419168047606945
          ],
          [
            -77.38982213661075,
            -9.419177519157529
          ],
          [
            -77.38985675387084,
            -9.41919176839292
          ],
          [
            -77.38999287597835,
            -9.419275503605611
          ],
          [
            -77.39011290483177,
            -9.419335518032314
          ],
          [
            -77.39015095867217,
            -9.419349096715454
          ],
          [
            -77.39017342217267,
            -9.419350856915118
          ],
          [
            -77.39021700806916,
            -9.419350270181885
          ],
          [
            -77.3902631085366,
            -9.419348090887064
          ],
          [
            -77.39029621705413,
            -9.41935622133314
          ],
          [
            -77.39038221538067,
            -9.419405423104767
          ],
          [
            -77.39041339606047,
            -9.419414978474375
          ],
          [
            -77.39051230251789,
            -9.419434173032643
          ],
          [
            -77.3905361071229,
            -9.419447416439649
          ],
          [
            -77.39056577906013,
            -9.419460073113434
          ],
          [
            -77.39059193059802,
            -9.41947524435818
          ],
          [
            -77.39063509739935,
            -9.419489409774545
          ],
          [
            -77.39067642018199,
            -9.419485889375206
          ],
          [
            -77.39070760086179,
            -9.419493768364196
          ],
          [
            -77.39076225087047,
            -9.419517992064355
          ],
          [
            -77.39078572019935,
            -9.419549088925121
          ],
          [
            -77.39079468883574,
            -9.41955990158022
          ],
          [
            -77.39093550480902,
            -9.419652018696066
          ],
          [
            -77.3909814376384,
            -9.419670375064022
          ],
          [
            -77.3909991234541,
            -9.419680684804927
          ],
          [
            -77.3910850379616,
            -9.419764671474699
          ],
          [
            -77.39113884977996,
            -9.419831391423946
          ],
          [
            -77.391173299402,
            -9.419852262362834
          ],
          [
            -77.39131478592753,
            -9.419943122193212
          ],
          [
            -77.3913749679923,
            -9.420000538229946
          ],
          [
            -77.39141268655658,
            -9.420041358098377
          ],
          [
            -77.391448142007,
            -9.420071952044967
          ],
          [
            -77.39145442843437,
            -9.420102797448637
          ],
          [
            -77.39148602820933,
            -9.420222658663981
          ],
          [
            -77.39150212146342,
            -9.42028686404229
          ],
          [
            -77.39152961410582,
            -9.42039415240288
          ],
          [
            -77.39156221970916,
            -9.420543098822234
          ],
          [
            -77.39161117002368,
            -9.42067687399685
          ],
          [
            -77.39162432961166,
            -9.420702354982499
          ],
          [
            -77.39168560132384,
            -9.4207953941077
          ],
          [
            -77.39174460992217,
            -9.420832525938742
          ],
          [
            -77.39176321774721,
            -9.420857755467289
          ],
          [
            -77.39179221913218,
            -9.420873429626232
          ],
          [
            -77.39191467873752,
            -9.421001756563783
          ],
          [
            -77.3920158483088,
            -9.421097645536065
          ],
          [
            -77.39202037453651,
            -9.421121366322039
          ],
          [
            -77.3921279143542,
            -9.421240556985136
          ],
          [
            -77.39219170063734,
            -9.421284645795817
          ],
          [
            -77.39225481636822,
            -9.421336362138396
          ],
          [
            -77.39238574169576,
            -9.421454798430204
          ],
          [
            -77.39244852215052,
            -9.421487739309676
          ],
          [
            -77.39250468090177,
            -9.421524116769433
          ],
          [
            -77.39255857653916,
            -9.421568373218186
          ],
          [
            -77.39264264702797,
            -9.421632746234538
          ],
          [
            -77.39270031452179,
            -9.421696281060582
          ],
          [
            -77.39273040555419,
            -9.421714385971434
          ],
          [
            -77.39284498617053,
            -9.42182251252233
          ],
          [
            -77.39292897284031,
            -9.421906163915988
          ],
          [
            -77.39295789040625,
            -9.421945810317998
          ],
          [
            -77.3930396977812,
            -9.422017475590104
          ],
          [
            -77.39305252209306,
            -9.422036167234173
          ],
          [
            -77.39309795200825,
            -9.42207103595137
          ],
          [
            -77.39313206635416,
            -9.422097187489266
          ],
          [
            -77.39323440939188,
            -9.422191902995111
          ],
          [
            -77.39328763447702,
            -9.422247055917977
          ],
          [
            -77.39340690895915,
            -9.422331294044847
          ],
          [
            -77.39341747015715,
            -9.422335401177405
          ],
          [
            -77.39352006465197,
            -9.422436403110618
          ],
          [
            -77.3935785703361,
            -9.422565819695588
          ],
          [
            -77.39362115040421,
            -9.422672353684902
          ],
          [
            -77.39368275739253,
            -9.422746784985069
          ],
          [
            -77.3937149439007,
            -9.422768494114278
          ],
          [
            -77.39380463026464,
            -9.42286019213498
          ],
          [
            -77.39393505267799,
            -9.422937892377373
          ],
          [
            -77.39400152117014,
            -9.42301953211426
          ],
          [
            -77.39410285837948,
            -9.423126904293888
          ],
          [
            -77.39413093775511,
            -9.423155570402743
          ],
          [
            -77.39423923194408,
            -9.423269396647804
          ],
          [
            -77.3942485358566,
            -9.42327593453229
          ],
          [
            -77.39436001516879,
            -9.423363944515579
          ],
          [
            -77.39442958496511,
            -9.423396550118921
          ],
          [
            -77.39450552500784,
            -9.423429742455486
          ],
          [
            -77.3946077004075,
            -9.423461090773348
          ],
          [
            -77.3946325108409,
            -9.423474585637452
          ],
          [
            -77.39470962435007,
            -9.42361565306782
          ],
          [
            -77.39476083777845,
            -9.423758899793025
          ],
          [
            -77.39477466791868,
            -9.423787146806715
          ],
          [
            -77.39484901539981,
            -9.423880772665147
          ],
          [
            -77.39487499929965,
            -9.423902062699202
          ],
          [
            -77.39496351219714,
            -9.424008345231405
          ],
          [
            -77.39499947056174,
            -9.424064168706543
          ],
          [
            -77.39503853023052,
            -9.4241351634264
          ],
          [
            -77.39507155492902,
            -9.424197860062131
          ],
          [
            -77.39508697763085,
            -9.42422401160001
          ],
          [
            -77.39518253132701,
            -9.4243407715112
          ],
          [
            -77.39519099704921,
            -9.42434747703374
          ],
          [
            -77.3952158074826,
            -9.424389135092504
          ],
          [
            -77.3952224291861,
            -9.424409000203012
          ],
          [
            -77.3953059129417,
            -9.424517713487148
          ],
          [
            -77.3953743930906,
            -9.424618966877457
          ],
          [
            -77.39541881717741,
            -9.424661546945561
          ],
          [
            -77.39543817937374,
            -9.42467252723872
          ],
          [
            -77.39548335783184,
            -9.424698343500495
          ],
          [
            -77.39550238475204,
            -9.42470949143172
          ],
          [
            -77.39557857625186,
            -9.424773361533886
          ],
          [
            -77.39561880938709,
            -9.424806134775274
          ],
          [
            -77.39568527787924,
            -9.424846032634374
          ],
          [
            -77.39580505527556,
            -9.424923397600644
          ],
          [
            -77.39584629423916,
            -9.424957847222682
          ],
          [
            -77.3959169536829,
            -9.425005037337545
          ],
          [
            -77.39594779908657,
            -9.425017777830362
          ],
          [
            -77.39603036083281,
            -9.425076954066743
          ],
          [
            -77.39605098031461,
            -9.425101010128857
          ],
          [
            -77.39609967917204,
            -9.425112996250393
          ]
        ]
      }
    },
    {
      "type": "Feature",
      "properties": {
        "name": "Turnaround",
        "evidence": "GPS reversal; user reports cliffs ahead; exact cliff edge not mapped"
      },
      "geometry": {
        "type": "Point",
        "coordinates": [
          -77.38886224105954,
          -9.419393353164196
        ]
      }
    },
    {
      "type": "Feature",
      "properties": {
        "name": "Westward turn after backtrack",
        "evidence": "Selected route turning point from GPS sequence"
      },
      "geometry": {
        "type": "Point",
        "coordinates": [
          -77.38833124749362,
          -9.41754162311554
        ]
      }
    }
  ]
}