{
  "type": "FeatureCollection",
  "features": [
    {
      "type": "Feature",
      "properties": {
        "name": "A enlargement extent",
        "meaning": "Map extent only, not hazard boundary"
      },
      "geometry": {
        "type": "Polygon",
        "coordinates": [
          [
            [
              -77.37871132178682,
              -9.421468900575608
            ],
            [
              -77.36915532983265,
              -9.421533295944784
            ],
            [
              -77.36912205410913,
              -9.416653261925097
            ],
            [
              -77.37867791215356,
              -9.416588900495285
            ],
            [
              -77.37871132178682,
              -9.421468900575608
            ]
          ]
        ]
      }
    },
    {
      "type": "Feature",
      "properties": {
        "name": "A approximate review section",
        "meaning": "Illustrative route section from user description; exact hazard location unconfirmed"
      },
      "geometry": {
        "type": "LineString",
        "coordinates": [
          [
            -77.3722861893475,
            -9.418134558945892
          ],
          [
            -77.37231661565602,
            -9.418163895607
          ],
          [
            -77.37237419933082,
            -9.418175378814341
          ],
          [
            -77.37242080271244,
            -9.418187029659753
          ],
          [
            -77.37242298200727,
            -9.418184766545881
          ],
          [
            -77.3724265024066,
            -9.418183676898485
          ],
          [
            -77.3724386561662,
            -9.418183425441379
          ],
          [
            -77.37245835363865,
            -9.418179821223017
          ],
          [
            -77.37248215824366,
            -9.418178899213666
          ],
          [
            -77.37249439582229,
            -9.4181842636317
          ],
          [
            -77.37250118516386,
            -9.418186359107484
          ],
          [
            -77.37251048907638,
            -9.41819423809648
          ],
          [
            -77.37252473831177,
            -9.418211169540886
          ],
          [
            -77.37255306914449,
            -9.418236063793307
          ],
          [
            -77.37258617766201,
            -9.41824981011451
          ],
          [
            -77.37259028479457,
            -9.418249474838378
          ],
          [
            -77.37261936999857,
            -9.418254001066085
          ],
          [
            -77.37262574024498,
            -9.418262718245376
          ],
          [
            -77.37264258787036,
            -9.418278560042374
          ],
          [
            -77.37264837138355,
            -9.418279984965912
          ],
          [
            -77.3726609442383,
            -9.418284008279448
          ],
          [
            -77.37266656011343,
            -9.418290043249717
          ],
          [
            -77.37267083488405,
            -9.41829423420131
          ],
          [
            -77.37270838581026,
            -9.418307477608327
          ],
          [
            -77.37273193895817,
            -9.418320804834366
          ],
          [
            -77.37274669110775,
            -9.418336562812328
          ],
          [
            -77.37278893589973,
            -9.418362295255067
          ],
          [
            -77.37280083820224,
            -9.418368330225348
          ],
          [
            -77.37281751818955,
            -9.418385596945884
          ],
          [
            -77.37285381183028,
            -9.41844234243036
          ],
          [
            -77.37286948598921,
            -9.41846036352218
          ],
          [
            -77.37288868054748,
            -9.418471343815328
          ],
          [
            -77.37290066666901,
            -9.418478216975927
          ],
          [
            -77.37292698584497,
            -9.418503362685437
          ],
          [
            -77.37294986844063,
            -9.418507721275084
          ],
          [
            -77.3729823064059,
            -9.418519875034688
          ],
          [
            -77.37300183624029,
            -9.418525155633683
          ],
          [
            -77.37301281653345,
            -9.41853026859463
          ],
          [
            -77.37303620204331,
            -9.418546613305807
          ],
          [
            -77.3730499483645,
            -9.418549882248033
          ],
          [
            -77.37306964583695,
            -9.418563293293122
          ],
          [
            -77.37308867275715,
            -9.418577123433353
          ],
          [
            -77.37310342490673,
            -9.41858123056591
          ],
          [
            -77.37312572076917,
            -9.418593468144543
          ],
          [
            -77.37313577905297,
            -9.418595479801295
          ],
          [
            -77.3731379583478,
            -9.41859950311482
          ],
          [
            -77.37315254285932,
            -9.418602688238016
          ],
          [
            -77.37317886203527,
            -9.418616769835348
          ],
          [
            -77.37321582622826,
            -9.418637724593273
          ],
          [
            -77.37323116511106,
            -9.418649626895789
          ],
          [
            -77.37323753535748,
            -9.418661026284097
          ],
          [
            -77.37324407324195,
            -9.418686255812638
          ],
          [
            -77.37328204326332,
            -9.418730679899456
          ],
          [
            -77.37331431359053,
            -9.418752221390603
          ],
          [
            -77.37332697026432,
            -9.418756244704117
          ],
          [
            -77.37332940101624,
            -9.418756579980256
          ],
          [
            -77.37333728000522,
            -9.418771835044017
          ],
          [
            -77.37336041405797,
            -9.418802848085754
          ],
          [
            -77.37339377403259,
            -9.418840901926151
          ],
          [
            -77.37340693362057,
            -9.418848529458044
          ],
          [
            -77.37344582565129,
            -9.418863030150522
          ],
          [
            -77.3734640982002,
            -9.418871076777576
          ],
          [
            -77.37348069436848,
            -9.418887672945852
          ],
          [
            -77.37350148148835,
            -9.418919272720814
          ],
          [
            -77.37351891584694,
            -9.418940981850028
          ],
          [
            -77.37353375181556,
            -9.418968642130505
          ],
          [
            -77.37356501631439,
            -9.418995967134835
          ],
          [
            -77.37359317950904,
            -9.419018765911462
          ],
          [
            -77.37362754531205,
            -9.419051203876727
          ],
          [
            -77.37367037683725,
            -9.41909311339259
          ],
          [
            -77.37368940375745,
            -9.419111553579574
          ],
          [
            -77.37370541319251,
            -9.419129658490428
          ],
          [
            -77.37371589057148,
            -9.419137788936501
          ],
          [
            -77.37374966964126,
            -9.419167963787915
          ],
          [
            -77.37377263605595,
            -9.41919931210578
          ],
          [
            -77.37381882034242,
            -9.419238120317463
          ],
          [
            -77.3738285433501,
            -9.419252034276719
          ],
          [
            -77.37387682311237,
            -9.41928246058523
          ],
          [
            -77.37392476759851,
            -9.419319005683066
          ],
          [
            -77.37395745702088,
            -9.419344654306762
          ],
          [
            -77.37397740595043,
            -9.419375415891412
          ],
          [
            -77.37399576231837,
            -9.41939092241228
          ],
          [
            -77.37401252612472,
            -9.419415816664703
          ],
          [
            -77.37403691746294,
            -9.419442471116785
          ],
          [
            -77.37406767904758,
            -9.419462671503421
          ],
          [
            -77.37410422414541,
            -9.419509023427961
          ],
          [
            -77.37413607537746,
            -9.419538024812942
          ],
          [
            -77.37416507676244,
            -9.419567864388231
          ],
          [
            -77.37420656718314,
            -9.41957348026335
          ],
          [
            -77.37423682585359,
            -9.419600637629621
          ],
          [
            -77.3742934037,
            -9.419616647064693
          ],
          [
            -77.37432332709432,
            -9.419627375900749
          ],
          [
            -77.37434822134674,
            -9.419639948755501
          ],
          [
            -77.37436439841986,
            -9.419686300680043
          ],
          [
            -77.37436917610466,
            -9.419685378670696
          ],
          [
            -77.37438384443521,
            -9.419714463874701
          ],
          [
            -77.37438216805458,
            -9.41971505060792
          ],
          [
            -77.37440463155508,
            -9.419657299295075
          ],
          [
            -77.37446506507695,
            -9.419647324830285
          ],
          [
            -77.37448585219681,
            -9.419659730046986
          ],
          [
            -77.3745125066489,
            -9.419678421691055
          ],
          [
            -77.37455885857344,
            -9.419679930433627
          ],
          [
            -77.37457386218011,
            -9.419692084193235
          ],
          [
            -77.37462566234171,
            -9.419714715331795
          ],
          [
            -77.37466572783887,
            -9.41973843611777
          ],
          [
            -77.37470185384154,
            -9.419770454987889
          ],
          [
            -77.37473236396909,
            -9.41979761235416
          ],
          [
            -77.37477879971266,
            -9.419808257371182
          ],
          [
            -77.37481836229563,
            -9.419829212129114
          ],
          [
            -77.37483554519713,
            -9.41983826458454
          ],
          [
            -77.37483303062618,
            -9.419848406687386
          ],
          [
            -77.3748315218836,
            -9.419866092503073
          ],
          [
            -77.37483604811132,
            -9.41993205808103
          ],
          [
            -77.37481702119112,
            -9.41998796537519
          ],
          [
            -77.37487041391432,
            -9.420057283714419
          ],
          [
            -77.37490469589831,
            -9.420076729729777
          ],
          [
            -77.37491316162051,
            -9.420082597061995
          ],
          [
            -77.37493386492133,
            -9.420091146603228
          ],
          [
            -77.3749509640038,
            -9.420111095532778
          ],
          [
            -77.3749720863998,
            -9.420122578740122
          ],
          [
            -77.3749961424619,
            -9.420124925673006
          ],
          [
            -77.37501399591565,
            -9.420110508799551
          ],
          [
            -77.37502120435238,
            -9.420080250129109
          ],
          [
            -77.37502573058009,
            -9.420055439695709
          ],
          [
            -77.37502531148493,
            -9.420041022822256
          ],
          [
            -77.37504215911031,
            -9.420013111084703
          ],
          [
            -77.3750605992973,
            -9.420006657019252
          ],
          [
            -77.37508750520647,
            -9.419995928183205
          ],
          [
            -77.37509571947157,
            -9.419983606785536
          ],
          [
            -77.375104771927,
            -9.4199560303241
          ],
          [
            -77.37512874417007,
            -9.419913617894052
          ],
          [
            -77.37516386434436,
            -9.419892160221941
          ],
          [
            -77.37516998313367,
            -9.419877827167516
          ],
          [
            -77.37517861649394,
            -9.419850585982203
          ],
          [
            -77.3752065282315,
            -9.419835414737454
          ],
          [
            -77.37521281465888,
            -9.41982602700591
          ],
          [
            -77.37523326650262,
            -9.41979786381126
          ],
          [
            -77.37523226067424,
            -9.419784536585208
          ],
          [
            -77.37522991374135,
            -9.419770957902072
          ],
          [
            -77.37523678690195,
            -9.419763498008251
          ],
          [
            -77.37528221681714,
            -9.41976752132177
          ],
          [
            -77.3752926941961,
            -9.41976768895984
          ],
          [
            -77.37529093399644,
            -9.419766264036294
          ],
          [
            -77.37529361620545,
            -9.419756708666684
          ],
          [
            -77.37530384212732,
            -9.419733658432966
          ],
          [
            -77.37532923929393,
            -9.41973282024265
          ],
          [
            -77.37534298561513,
            -9.419719325378543
          ],
          [
            -77.3754002340138,
            -9.419690743088717
          ],
          [
            -77.37542998977005,
            -9.419660903513424
          ],
          [
            -77.37544784322382,
            -9.419660149142139
          ],
          [
            -77.37547600641847,
            -9.419646989554176
          ],
          [
            -77.37550945021212,
            -9.419592171907414
          ],
          [
            -77.37552395090461,
            -9.41958001814782
          ],
          [
            -77.37553560175002,
            -9.419575827196248
          ],
          [
            -77.37553560175002,
            -9.419575827196248
          ],
          [
            -77.3755418881774,
            -9.419566020369535
          ],
          [
            -77.37556108273566,
            -9.41953659988939
          ],
          [
            -77.37557105720043,
            -9.419518075883392
          ],
          [
            -77.3755796905607,
            -9.419510699808598
          ],
          [
            -77.37559377215803,
            -9.419494858011609
          ],
          [
            -77.37561154179275,
            -9.41948018968106
          ],
          [
            -77.37561321817338,
            -9.419480273500092
          ],
          [
            -77.37563341856003,
            -9.41946158185602
          ],
          [
            -77.37563073635101,
            -9.419449511915436
          ],
          [
            -77.37562746740878,
            -9.419444650411597
          ],
          [
            -77.37561916932464,
            -9.419445907697089
          ],
          [
            -77.37563098780811,
            -9.41942545585335
          ],
          [
            -77.37563635222614,
            -9.419422019273046
          ],
          [
            -77.37564054317774,
            -9.419420845806593
          ],
          [
            -77.37564238719642,
            -9.419418331235644
          ],
          [
            -77.37565093673766,
            -9.419429814442985
          ],
          [
            -77.3756454885006,
            -9.41942252218724
          ],
          [
            -77.3756592348218,
            -9.419429479166862
          ],
          [
            -77.37565160728991,
            -9.419426880776879
          ],
          [
            -77.37567105330527,
            -9.419415062293405
          ],
          [
            -77.37567993812263,
            -9.419398298487073
          ],
          [
            -77.37566133029759,
            -9.419346582144493
          ],
          [
            -77.37567951902747,
            -9.419338451698428
          ],
          [
            -77.37572025507689,
            -9.419399304315457
          ],
          [
            -77.37577054649591,
            -9.419434424489731
          ],
          [
            -77.37579267472029,
            -9.419445907697083
          ],
          [
            -77.37579393200576,
            -9.419437525793908
          ],
          [
            -77.37581446766853,
            -9.419441968202596
          ],
          [
            -77.3758281301707,
            -9.419439202174539
          ],
          [
            -77.37584447488189,
            -9.419435095041992
          ],
          [
            -77.37585872411728,
            -9.419431574642667
          ],
          [
            -77.37586442381144,
            -9.41942855715751
          ],
          [
            -77.37586819566786,
            -9.419405087828627
          ],
          [
            -77.37587423063815,
            -9.419401567429302
          ],
          [
            -77.37589015625419,
            -9.419381450861696
          ],
          [
            -77.37590658478439,
            -9.419371392577885
          ],
          [
            -77.37592368386686,
            -9.419343145564204
          ],
          [
            -77.37593784928322,
            -9.41930634900928
          ],
          [
            -77.37594648264349,
            -9.419276425614962
          ],
          [
            -77.37595117650926,
            -9.419229570776224
          ],
          [
            -77.37595327198505,
            -9.419211549684414
          ],
          [
            -77.3759546969086,
            -9.419208867475385
          ],
          [
            -77.37595670856535,
            -9.419207610189913
          ],
          [
            -77.37596567720175,
            -9.419228648766868
          ],
          [
            -77.37596559338273,
            -9.41922814585269
          ]
        ]
      }
    },
    {
      "type": "Feature",
      "properties": {
        "name": "B enlargement extent",
        "meaning": "Map extent only, not hazard boundary"
      },
      "geometry": {
        "type": "Polygon",
        "coordinates": [
          [
            [
              -77.38944351711622,
              -9.42040215763427
            ],
            [
              -77.37415406380069,
              -9.42050552002587
            ],
            [
              -77.37410072496502,
              -9.412697492831217
            ],
            [
              -77.38938983557497,
              -9.412594217610637
            ],
            [
              -77.38944351711622,
              -9.42040215763427
            ]
          ]
        ]
      }
    },
    {
      "type": "Feature",
      "properties": {
        "name": "B approximate review section",
        "meaning": "Illustrative route section from user description; exact hazard location unconfirmed"
      },
      "geometry": {
        "type": "LineString",
        "coordinates": [
          [
            -77.37788756377995,
            -9.417317407205706
          ],
          [
            -77.37790055572987,
            -9.417297542095175
          ],
          [
            -77.37790692597628,
            -9.417267870157955
          ],
          [
            -77.37792737782001,
            -9.417274156585334
          ],
          [
            -77.37794833257794,
            -9.417271306738261
          ],
          [
            -77.37795805558562,
            -9.417254542931921
          ],
          [
            -77.37797188572586,
            -9.417255213484163
          ],
          [
            -77.3780193272978,
            -9.417249681428077
          ],
          [
            -77.37805553711951,
            -9.417259404435763
          ],
          [
            -77.37809451296926,
            -9.417219674214723
          ],
          [
            -77.37810197286308,
            -9.417174579575663
          ],
          [
            -77.37809233367443,
            -9.417134765535588
          ],
          [
            -77.37809392623603,
            -9.417112553492194
          ],
          [
            -77.37810146994889,
            -9.417092436924577
          ],
          [
            -77.37808529287577,
            -9.417048431932928
          ],
          [
            -77.37813038751483,
            -9.416997134685518
          ],
          [
            -77.3781702015549,
            -9.416989507153636
          ],
          [
            -77.37820322625339,
            -9.417007444426423
          ],
          [
            -77.37823323346674,
            -9.41702957265079
          ],
          [
            -77.37824622541666,
            -9.4170052651316
          ],
          [
            -77.37826600670815,
            -9.416980370879173
          ],
          [
            -77.3782836087048,
            -9.416957572102548
          ],
          [
            -77.37831646576524,
            -9.416952207684517
          ],
          [
            -77.37830548547208,
            -9.416912058368323
          ],
          [
            -77.37830590456724,
            -9.41690996289254
          ],
          [
            -77.37831101752818,
            -9.41688724793493
          ],
          [
            -77.37830716185272,
            -9.416851205751307
          ],
          [
            -77.37831428647041,
            -9.416832262650138
          ],
          [
            -77.37830238416791,
            -9.416819270700222
          ],
          [
            -77.37831512466073,
            -9.416787335649136
          ],
          [
            -77.37831219099462,
            -9.416771158576017
          ],
          [
            -77.37831269390881,
            -9.416743582114576
          ],
          [
            -77.37831302918494,
            -9.416714580729606
          ],
          [
            -77.37831462174654,
            -9.416691614314914
          ],
          [
            -77.37829366698861,
            -9.416684573516244
          ],
          [
            -77.3782479017973,
            -9.416660852730276
          ],
          [
            -77.37823113799095,
            -9.416613662615422
          ],
          [
            -77.37822770141065,
            -9.41657904535532
          ],
          [
            -77.37821931950748,
            -9.416544595733278
          ],
          [
            -77.3782220017165,
            -9.41650981083512
          ],
          [
            -77.37822049297392,
            -9.41648441366852
          ],
          [
            -77.37819283269346,
            -9.416439905762664
          ],
          [
            -77.37817439250648,
            -9.416426159441471
          ],
          [
            -77.37816047854722,
            -9.41638383083045
          ],
          [
            -77.37815218046308,
            -9.416311997920268
          ],
          [
            -77.37815586850047,
            -9.416284253820784
          ],
          [
            -77.37819987349212,
            -9.416269334033128
          ],
          [
            -77.37821068614721,
            -9.416244188323624
          ],
          [
            -77.37819341942668,
            -9.416203536093231
          ],
          [
            -77.37820046022534,
            -9.416158022359019
          ],
          [
            -77.37821135669947,
            -9.41614586859942
          ],
          [
            -77.3782095964998,
            -9.416116280481218
          ],
          [
            -77.3782130330801,
            -9.416096080094581
          ],
          [
            -77.37822409719229,
            -9.416082417592408
          ],
          [
            -77.37822208553553,
            -9.416065234690898
          ],
          [
            -77.37821219488978,
            -9.416045704856511
          ],
          [
            -77.37820683047175,
            -9.416024750098595
          ],
          [
            -77.37817841582,
            -9.41599155776203
          ],
          [
            -77.3781612329185,
            -9.415951659902923
          ],
          [
            -77.37814966589212,
            -9.415933387354016
          ],
          [
            -77.37814698368311,
            -9.415911426767703
          ],
          [
            -77.37815771251917,
            -9.41590078175068
          ],
          [
            -77.37817087210715,
            -9.415818387642497
          ],
          [
            -77.37818302586675,
            -9.415773376822472
          ],
          [
            -77.37819023430347,
            -9.415747057646513
          ],
          [
            -77.37819115631284,
            -9.415733311325315
          ],
          [
            -77.37820037640631,
            -9.415708500891915
          ],
          [
            -77.3782061599195,
            -9.41568260081112
          ],
          [
            -77.37821085378528,
            -9.415632560849188
          ],
          [
            -77.3782024718821,
            -9.415627364069222
          ],
          [
            -77.37819107249379,
            -9.41559014841914
          ],
          [
            -77.37818101420999,
            -9.415565170347685
          ],
          [
            -77.37817539833486,
            -9.41553985700011
          ],
          [
            -77.37817288376391,
            -9.415510771796102
          ],
          [
            -77.37817288376391,
            -9.415498534217472
          ],
          [
            -77.37816852517426,
            -9.415485709905619
          ],
          [
            -77.37817036919296,
            -9.415473053231839
          ],
          [
            -77.37816005945206,
            -9.415442962199448
          ],
          [
            -77.37815913744272,
            -9.415426198393106
          ],
          [
            -77.37815586850047,
            -9.415418151766056
          ],
          [
            -77.37814120016992,
            -9.41539987921714
          ],
          [
            -77.37813474610448,
            -9.415385713800779
          ],
          [
            -77.37813097424805,
            -9.41535143181681
          ],
          [
            -77.37812192179263,
            -9.41534791141748
          ],
          [
            -77.37808068282902,
            -9.415337266400456
          ],
          [
            -77.3780732229352,
            -9.415324106812475
          ],
          [
            -77.37806567922235,
            -9.415321089327339
          ],
          [
            -77.37806810997427,
            -9.415309606119985
          ],
          [
            -77.37806442193687,
            -9.415270630270234
          ],
          [
            -77.37808504141867,
            -9.415244730189446
          ],
          [
            -77.3780769109726,
            -9.415198378264904
          ],
          [
            -77.37806777469814,
            -9.415189158171406
          ],
          [
            -77.37801128067076,
            -9.415144398808474
          ],
          [
            -77.37796291708946,
            -9.41511279903352
          ],
          [
            -77.37794238142669,
            -9.415092263370752
          ],
          [
            -77.37793140113354,
            -9.415074577555067
          ],
          [
            -77.37793793901801,
            -9.415057729929696
          ],
          [
            -77.37795688211918,
            -9.415045743808156
          ],
          [
            -77.37795294262469,
            -9.415000062435858
          ],
          [
            -77.37797515466809,
            -9.414943065494292
          ],
          [
            -77.37799786962569,
            -9.41492638550698
          ],
          [
            -77.37800700590014,
            -9.414924960583454
          ],
          [
            -77.37803240306675,
            -9.414928313344712
          ],
          [
            -77.37804237753153,
            -9.414926301687954
          ],
          [
            -77.37808110192418,
            -9.414893863722678
          ],
          [
            -77.37813575193286,
            -9.414825048297647
          ],
          [
            -77.3781696986407,
            -9.414810463786122
          ],
          [
            -77.37822937779129,
            -9.414804596453898
          ],
          [
            -77.37825720570982,
            -9.414798896759741
          ],
          [
            -77.3782976064831,
            -9.414821024984114
          ],
          [
            -77.37833817489445,
            -9.414822533726698
          ],
          [
            -77.37836508080363,
            -9.41482471302152
          ],
          [
            -77.37838092260063,
            -9.41479177214205
          ],
          [
            -77.37839517183602,
            -9.414798980578782
          ],
          [
            -77.3784392606467,
            -9.41478883847595
          ],
          [
            -77.37850153818727,
            -9.414768135175114
          ],
          [
            -77.37856515683234,
            -9.41475908271968
          ],
          [
            -77.37860807217658,
            -9.414772661402823
          ],
          [
            -77.37863573245704,
            -9.414748856797823
          ],
          [
            -77.37867185845971,
            -9.414752041921023
          ],
          [
            -77.3787032905966,
            -9.41470392979682
          ],
          [
            -77.37872483208776,
            -9.414686411619192
          ],
          [
            -77.37875567749143,
            -9.414671324193485
          ],
          [
            -77.37877587787808,
            -9.414680795744069
          ],
          [
            -77.37878979183733,
            -9.41469747573138
          ],
          [
            -77.3788068909198,
            -9.414706947281962
          ],
          [
            -77.3788293544203,
            -9.414726477116337
          ],
          [
            -77.37885768525302,
            -9.414734607562416
          ],
          [
            -77.378881406039,
            -9.414731506258253
          ],
          [
            -77.37892515957357,
            -9.414721950888637
          ],
          [
            -77.37897276878357,
            -9.414690099656573
          ],
          [
            -77.37899925559759,
            -9.41465296782553
          ],
          [
            -77.37901870161295,
            -9.414635282009844
          ],
          [
            -77.37904309295118,
            -9.4146185182035
          ],
          [
            -77.37907737493515,
            -9.414612147957092
          ],
          [
            -77.37909648567438,
            -9.414588678628213
          ],
          [
            -77.37914342433214,
            -9.414529250934715
          ],
          [
            -77.37916337326169,
            -9.414510056376464
          ],
          [
            -77.3792062047869,
            -9.414476444944743
          ],
          [
            -77.37925163470209,
            -9.414453646168113
          ],
          [
            -77.37929773516953,
            -9.414433781057603
          ],
          [
            -77.37931961193681,
            -9.41441676579415
          ],
          [
            -77.37936705350876,
            -9.414414418861261
          ],
          [
            -77.37941441126168,
            -9.41438156180084
          ],
          [
            -77.3794562369585,
            -9.414366809651257
          ],
          [
            -77.37947341986,
            -9.414354069158433
          ],
          [
            -77.37950929440558,
            -9.414319368079296
          ],
          [
            -77.37954257056117,
            -9.414320793002842
          ],
          [
            -77.37956453114748,
            -9.4143217150122
          ],
          [
            -77.37959613092244,
            -9.414337808266277
          ],
          [
            -77.37961616367102,
            -9.414371000602845
          ],
          [
            -77.37966737709941,
            -9.414338227361448
          ],
          [
            -77.37969310954213,
            -9.41433026455342
          ],
          [
            -77.37970802932978,
            -9.41430369392037
          ],
          [
            -77.37972336821258,
            -9.414299419149764
          ],
          [
            -77.3797636013478,
            -9.414283074438574
          ],
          [
            -77.37982319667935,
            -9.414269495755443
          ],
          [
            -77.37983074039221,
            -9.414258850738413
          ],
          [
            -77.37982906401157,
            -9.414254324510697
          ],
          [
            -77.37984943203628,
            -9.414249965921039
          ],
          [
            -77.37990131601691,
            -9.414231944829227
          ],
          [
            -77.37996166571975,
            -9.414220210164778
          ],
          [
            -77.37998429685831,
            -9.41421526484192
          ],
          [
            -77.37998865544796,
            -9.414215432479972
          ],
          [
            -77.38002821803093,
            -9.41419766284526
          ],
          [
            -77.38005889579654,
            -9.414145443588497
          ],
          [
            -77.38008429296315,
            -9.414112083613869
          ],
          [
            -77.38012083806098,
            -9.414085932075972
          ],
          [
            -77.38012687303126,
            -9.414076711982494
          ],
          [
            -77.38015704788268,
            -9.414027091115717
          ],
          [
            -77.38016735762358,
            -9.414003789424905
          ],
          [
            -77.38019476644695,
            -9.413991719484327
          ],
          [
            -77.38022049888968,
            -9.413984008133419
          ],
          [
            -77.38026131875813,
            -9.413954084739094
          ],
          [
            -77.38027238287032,
            -9.413934973999849
          ],
          [
            -77.38030708394945,
            -9.413934051990516
          ],
          [
            -77.38032879307866,
            -9.413905888795854
          ],
          [
            -77.38036592490971,
            -9.413873869925734
          ],
          [
            -77.3803717084229,
            -9.413839923217902
          ],
          [
            -77.38038377836347,
            -9.413792649284
          ],
          [
            -77.3803854547441,
            -9.413753170520067
          ],
          [
            -77.38043817691505,
            -9.413713775575156
          ],
          [
            -77.38045879639685,
            -9.413723163306713
          ],
          [
            -77.38046935759485,
            -9.413750404492015
          ],
          [
            -77.38049953244627,
            -9.41377965733409
          ],
          [
            -77.38052383996546,
            -9.413854507729406
          ],
          [
            -77.38053054548801,
            -9.41386934369803
          ],
          [
            -77.38053632900119,
            -9.413902284577484
          ],
          [
            -77.38052409142256,
            -9.413895998150103
          ],
          [
            -77.38052945584059,
            -9.413892896845937
          ],
          [
            -77.38054730929434,
            -9.413937320932746
          ],
          [
            -77.38054923713207,
            -9.413941511884325
          ],
          [
            -77.38053431734443,
            -9.413893064484002
          ],
          [
            -77.38053180277348,
            -9.413873115554452
          ],
          [
            -77.38054119050503,
            -9.413858195766798
          ],
          [
            -77.38055736757815,
            -9.413870098069307
          ],
          [
            -77.38057287409902,
            -9.41390027292073
          ],
          [
            -77.38058569841087,
            -9.413910666480655
          ],
          [
            -77.38059751689435,
            -9.413937153294677
          ],
          [
            -77.38060439005494,
            -9.413947043940427
          ],
          [
            -77.38062182441354,
            -9.413959197700029
          ],
          [
            -77.38063666038215,
            -9.413975710049272
          ],
          [
            -77.38065023906529,
            -9.414012758061284
          ],
          [
            -77.38066473975778,
            -9.41404519602656
          ],
          [
            -77.38069684244692,
            -9.414098421111706
          ],
          [
            -77.38072643056512,
            -9.414142509922394
          ],
          [
            -77.3807533364743,
            -9.414155082777139
          ],
          [
            -77.38077571615577,
            -9.414180899038909
          ],
          [
            -77.38078837282956,
            -9.41419095732271
          ],
          [
            -77.38080295734107,
            -9.414243595674638
          ],
          [
            -77.3808154463768,
            -9.414268992841253
          ],
          [
            -77.38081645220518,
            -9.414280811324712
          ],
          [
            -77.38082181662321,
            -9.414307801052926
          ],
          [
            -77.38083221018314,
            -9.414374185726045
          ],
          [
            -77.38086548633873,
            -9.41439254209399
          ],
          [
            -77.38088015466928,
            -9.414448700845236
          ],
          [
            -77.3808913026005,
            -9.414467727765434
          ],
          [
            -77.38091276027262,
            -9.41450351849199
          ],
          [
            -77.38093798980117,
            -9.414540063589815
          ],
          [
            -77.38096171058714,
            -9.414598066359762
          ],
          [
            -77.38097160123289,
            -9.414596389979126
          ],
          [
            -77.38097830675542,
            -9.414589181542398
          ],
          [
            -77.38099808804691,
            -9.414595300331712
          ],
          [
            -77.38102910108864,
            -9.414645005017524
          ],
          [
            -77.38103496842086,
            -9.414645088836545
          ],
          [
            -77.3810710106045,
            -9.414654308930045
          ],
          [
            -77.38112272694707,
            -9.414716837927692
          ],
          [
            -77.38113856874406,
            -9.414732931181785
          ],
          [
            -77.38114912994206,
            -9.414782719686626
          ],
          [
            -77.38117679022253,
            -9.414771236479279
          ],
          [
            -77.38119640387595,
            -9.414732512086635
          ],
          [
            -77.3812404088676,
            -9.414720106869934
          ],
          [
            -77.38128365948796,
            -9.414746174588794
          ],
          [
            -77.3813146725297,
            -9.41472781822086
          ],
          [
            -77.38135054707527,
            -9.414715832099324
          ],
          [
            -77.38135398365557,
            -9.414701163768774
          ],
          [
            -77.38138248212636,
            -9.414668139070276
          ],
          [
            -77.38143444992602,
            -9.414666714146726
          ],
          [
            -77.38145649433136,
            -9.414652213454247
          ],
          [
            -77.38151240162551,
            -9.414596389979122
          ],
          [
            -77.3815583344549,
            -9.414572669193149
          ],
          [
            -77.38156730309129,
            -9.41456470638514
          ],
          [
            -77.38159546628594,
            -9.414551462978125
          ],
          [
            -77.38161885179579,
            -9.414543751627205
          ],
          [
            -77.38167559728026,
            -9.414533860981463
          ],
          [
            -77.3816838953644,
            -9.414468649774795
          ],
          [
            -77.38169001415372,
            -9.414412993937738
          ],
          [
            -77.381661683321,
            -9.41432003863155
          ],
          [
            -77.38164843991399,
            -9.414270250126718
          ],
          [
            -77.3816667124629,
            -9.414250049740073
          ],
          [
            -77.38170166499913,
            -9.41422213800252
          ],
          [
            -77.38173611462116,
            -9.414231190457937
          ],
          [
            -77.38177123479545,
            -9.41419581882655
          ],
          [
            -77.38181255757809,
            -9.41418332979083
          ],
          [
            -77.38182622008026,
            -9.414189616218202
          ],
          [
            -77.3818395473063,
            -9.414205960929392
          ],
          [
            -77.38188497722149,
            -9.414260359480982
          ],
          [
            -77.38189931027591,
            -9.414280056953434
          ],
          [
            -77.3819238692522,
            -9.414301598444588
          ],
          [
            -77.38194725476205,
            -9.41429925151169
          ],
          [
            -77.3819759208709,
            -9.414292713627225
          ],
          [
            -77.3819827940315,
            -9.414291707798835
          ],
          [
            -77.38200567662716,
            -9.414282571524376
          ],
          [
            -77.38201607018709,
            -9.414279973134395
          ],
          [
            -77.38204456865788,
            -9.414280056953434
          ],
          [
            -77.38207616843283,
            -9.414281062781813
          ],
          [
            -77.38210273906589,
            -9.414280978962774
          ],
          [
            -77.38210693001747,
            -9.414277123287315
          ],
          [
            -77.38212729804218,
            -9.414252983406183
          ],
          [
            -77.3821368534118,
            -9.414220713078967
          ],
          [
            -77.38217180594802,
            -9.414221551269298
          ],
          [
            -77.38218605518341,
            -9.414214007556437
          ],
          [
            -77.38219904713333,
            -9.41418978385628
          ],
          [
            -77.38225570879877,
            -9.414205374196179
          ],
          [
            -77.38227356225252,
            -9.414210906252267
          ],
          [
            -77.3822832852602,
            -9.414184503257276
          ],
          [
            -77.382298624143,
            -9.414185592904678
          ],
          [
            -77.3823160585016,
            -9.414183078333727
          ],
          [
            -77.38235486671329,
            -9.4141726847738
          ],
          [
            -77.3823715467006,
            -9.414179306477315
          ],
          [
            -77.38238814286888,
            -9.41418408416212
          ],
          [
            -77.38243239931762,
            -9.414178384467949
          ],
          [
            -77.38244731910527,
            -9.414194729179147
          ],
          [
            -77.38244748674333,
            -9.414197495207198
          ],
          [
            -77.38245092332365,
            -9.414195064455264
          ],
          [
            -77.38248193636537,
            -9.414210906252265
          ],
          [
            -77.38250389695168,
            -9.414192717522374
          ],
          [
            -77.38250968046488,
            -9.414172936230901
          ],
          [
            -77.38252820447089,
            -9.414168326184148
          ],
          [
            -77.38256894052029,
            -9.414176456630228
          ],
          [
            -77.38258302211761,
            -9.414178635925056
          ],
          [
            -77.38259861245751,
            -9.414175031706687
          ],
          [
            -77.38261596299708,
            -9.414173020049937
          ],
          [
            -77.38264253363013,
            -9.414177127182489
          ],
          [
            -77.38267580978572,
            -9.41417536698281
          ],
          [
            -77.38269651308656,
            -9.414153574034575
          ],
          [
            -77.38269911147654,
            -9.414156507700671
          ],
          [
            -77.38272258080542,
            -9.41415642388165
          ],
          [
            -77.38274160772562,
            -9.414159776642917
          ],
          [
            -77.38275703042746,
            -9.41415390931069
          ],
          [
            -77.38278049975634,
            -9.414138318970805
          ],
          [
            -77.38281997852027,
            -9.41413781605661
          ],
          [
            -77.38284872844815,
            -9.414137396961447
          ],
          [
            -77.38288275897503,
            -9.414126416668303
          ],
          [
            -77.38291586749256,
            -9.414119040593512
          ],
          [
            -77.38294168375432,
            -9.414112335070962
          ],
          [
            -77.38296154886484,
            -9.414112083613874
          ],
          [
            -77.38299532793462,
            -9.41410822793841
          ],
          [
            -77.38301510922611,
            -9.414087608456608
          ],
          [
            -77.383035980165,
            -9.414135469123728
          ],
          [
            -77.3830626346171,
            -9.414150640368467
          ],
          [
            -77.38306749612093,
            -9.41416505724192
          ],
          [
            -77.38307042978704,
            -9.414193639531726
          ],
          [
            -77.38309423439205,
            -9.414186179637904
          ],
          [
            -77.38314226269722,
            -9.414178552106025
          ],
          [
            -77.38317528739572,
            -9.414191963151097
          ],
          [
            -77.38322398625314,
            -9.414234040305026
          ],
          [
            -77.38325877115132,
            -9.414226496592159
          ],
          [
            -77.38331870175898,
            -9.414220377802854
          ],
          [
            -77.38331761211157,
            -9.414220629259939
          ],
          [
            -77.38332314416766,
            -9.414214678108685
          ],
          [
            -77.3833232279867,
            -9.414213253185144
          ],
          [
            -77.38332037813962,
            -9.414207218214871
          ],
          [
            -77.38331509754062,
            -9.414217444136732
          ],
          [
            -77.38330914638937,
            -9.414225574582815
          ],
          [
            -77.38330747000875,
            -9.414232531562442
          ],
          [
            -77.38331702537835,
            -9.41423127427697
          ],
          [
            -77.3833110742271,
            -9.414243260398507
          ],
          [
            -77.38328182138503,
            -9.41433009691537
          ],
          [
            -77.38333689048886,
            -9.414431266486638
          ],
          [
            -77.38339003175497,
            -9.414490023627874
          ],
          [
            -77.38347586244345,
            -9.414518019184476
          ],
          [
            -77.38356311805546,
            -9.4145268201828
          ],
          [
            -77.38365573808551,
            -9.41453956067562
          ],
          [
            -77.38368775695562,
            -9.414542913436891
          ],
          [
            -77.38376830704512,
            -9.41457099281251
          ],
          [
            -77.38386201672257,
            -9.414606280624875
          ],
          [
            -77.38389470614493,
            -9.41462631337345
          ],
          [
            -77.38389906473458,
            -9.414627570658926
          ],
          [
            -77.38392270170152,
            -9.414633857086299
          ],
          [
            -77.38398229703307,
            -9.414627654477952
          ],
          [
            -77.3840357735753,
            -9.414647184312342
          ],
          [
            -77.38406988792121,
            -9.41463603638113
          ],
          [
            -77.38409025594592,
            -9.41461315378546
          ],
          [
            -77.38411087542772,
            -9.414602760225527
          ],
          [
            -77.38412789069116,
            -9.414605023339389
          ],
          [
            -77.38414742052555,
            -9.414578787982471
          ],
          [
            -77.38418446853757,
            -9.414583398029217
          ],
          [
            -77.38420307636261,
            -9.414598904550084
          ],
          [
            -77.38423375412822,
            -9.414606448262932
          ],
          [
            -77.38426501862705,
            -9.414608040824536
          ],
          [
            -77.38427197560668,
            -9.414600329473613
          ],
          [
            -77.38428907468915,
            -9.41457426175475
          ],
          [
            -77.38431396894157,
            -9.41456252709031
          ],
          [
            -77.38432855345309,
            -9.41455121152103
          ],
          [
            -77.3843523580581,
            -9.414534615352746
          ],
          [
            -77.38436384126544,
            -9.414539476856593
          ],
          [
            -77.38438588567078,
            -9.414515504613512
          ],
          [
            -77.384426118806,
            -9.414519527927038
          ],
          [
            -77.38446291536093,
            -9.414545595645908
          ],
          [
            -77.38447926007211,
            -9.414590857923036
          ],
          [
            -77.38450214266777,
            -9.414628827944407
          ],
          [
            -77.38451974466443,
            -9.414654644206164
          ],
          [
            -77.384550338611,
            -9.414669312536713
          ],
          [
            -77.3845680244267,
            -9.414729326963425
          ],
          [
            -77.38457548432052,
            -9.414735278114682
          ],
          [
            -77.38460876047611,
            -9.414736200124016
          ],
          [
            -77.38462569192052,
            -9.41472312435508
          ],
          [
            -77.38465888425708,
            -9.414732092991477
          ],
          [
            -77.38468092866242,
            -9.414718095213173
          ],
          [
            -77.38469232805073,
            -9.414706444367757
          ],
          [
            -77.3847096785903,
            -9.414687752723696
          ],
          [
            -77.38473013043404,
            -9.414708958938713
          ],
          [
            -77.38476005382836,
            -9.414722202345725
          ],
          [
            -77.38477170467377,
            -9.414716251194484
          ],
          [
            -77.38478511571884,
            -9.414708036929373
          ],
          [
            -77.38479835912585,
            -9.414708875119684
          ],
          [
            -77.3848130274564,
            -9.414694206789129
          ],
          [
            -77.38483104854822,
            -9.414662020280952
          ],
          [
            -77.3848616424948,
            -9.41466880962253
          ],
          [
            -77.38489726558328,
            -9.414739552885294
          ],
          [
            -77.38491964526474,
            -9.41472513601184
          ],
          [
            -77.38494194112718,
            -9.414763273671273
          ],
          [
            -77.38496448844671,
            -9.414792861789465
          ],
          [
            -77.38498720340431,
            -9.414783306419846
          ],
          [
            -77.3850032966584,
            -9.414781630039204
          ],
          [
            -77.3850271012634,
            -9.414754221215846
          ],
          [
            -77.3850963357836,
            -9.41476738080382
          ],
          [
            -77.38509030081332,
            -9.41479068249464
          ],
          [
            -77.38511377014221,
            -9.414753215387467
          ],
          [
            -77.38511863164604,
            -9.4147601723671
          ],
          [
            -77.38512290641665,
            -9.414816666394465
          ],
          [
            -77.38512810319662,
            -9.414860419929035
          ],
          [
            -77.38514386117458,
            -9.414899479597809
          ],
          [
            -77.38516104407609,
            -9.414921021088965
          ],
          [
            -77.38518577069044,
            -9.414952369406812
          ],
          [
            -77.38520261831582,
            -9.414969468489288
          ],
          [
            -77.38521435298027,
            -9.415044151246544
          ],
          [
            -77.38521862775087,
            -9.415089329704639
          ],
          [
            -77.38523622974753,
            -9.415137609466903
          ],
          [
            -77.3852469585836,
            -9.41514381207526
          ],
          [
            -77.38524762913585,
            -9.415167029947044
          ],
          [
            -77.38526866771281,
            -9.415193181484932
          ],
          [
            -77.38528224639595,
            -9.415212711319331
          ],
          [
            -77.38528727553785,
            -9.415230983868234
          ],
          [
            -77.38530647009611,
            -9.415302816778414
          ],
          [
            -77.38531627692282,
            -9.415385127067557
          ],
          [
            -77.38534603267908,
            -9.415471712127333
          ],
          [
            -77.3853867687285,
            -9.415530050173407
          ],
          [
            -77.38542214035989,
            -9.415542874485254
          ],
          [
            -77.38546631298959,
            -9.41558553837239
          ],
          [
            -77.38547385670245,
            -9.415609678253533
          ],
          [
            -77.38552867434919,
            -9.41565728746355
          ],
          [
            -77.38554501906037,
            -9.415693748742335
          ],
          [
            -77.38556630909443,
            -9.41568318754435
          ],
          [
            -77.38558944314718,
            -9.415681846439844
          ],
          [
            -77.38562632352114,
            -9.415695341303953
          ],
          [
            -77.38568876869977,
            -9.41571051254869
          ],
          [
            -77.38572749309242,
            -9.415720654651524
          ],
          [
            -77.38576806150377,
            -9.41574722528457
          ],
          [
            -77.38578490912914,
            -9.415771532803774
          ],
          [
            -77.38581407815218,
            -9.415763486176735
          ],
          [
            -77.38591432571411,
            -9.415786787867548
          ],
          [
            -77.38594366237521,
            -9.415781004354356
          ],
          [
            -77.38594190217555,
            -9.41578309983016
          ],
          [
            -77.38595481030643,
            -9.415783518925318
          ],
          [
            -77.38598297350109,
            -9.415783518925304
          ],
          [
            -77.38599051721394,
            -9.415813945233829
          ],
          [
            -77.38602035678923,
            -9.415902458131315
          ],
          [
            -77.38607634790242,
            -9.415912684053184
          ],
          [
            -77.38612622022629,
            -9.41594654694199
          ],
          [
            -77.38614030182362,
            -9.415984936058528
          ],
          [
            -77.38619025796652,
            -9.416051236912601
          ],
          [
            -77.38625471480191,
            -9.416040591895586
          ],
          [
            -77.386260246858,
            -9.416035395115616
          ],
          [
            -77.38629352301359,
            -9.416015194728962
          ],
          [
            -77.38635152578354,
            -9.416033634915944
          ],
          [
            -77.38643132150173,
            -9.41608224995434
          ],
          [
            -77.38648915663362,
            -9.416185179725284
          ],
          [
            -77.38654816523194,
            -9.416238991543654
          ],
          [
            -77.38656677305698,
            -9.41627075895668
          ],
          [
            -77.38667163066566,
            -9.41635600291192
          ],
          [
            -77.38670348189771,
            -9.41637662239373
          ],
          [
            -77.38676374778152,
            -9.416405456140636
          ],
          [
            -77.38677020184696,
            -9.416408976539975
          ],
          [
            -77.38678847439587,
            -9.41640570759773
          ],
          [
            -77.38686642609537,
            -9.416407635435464
          ],
          [
            -77.3869146220386,
            -9.416417106986046
          ],
          [
            -77.38697002641857,
            -9.41641341894864
          ],
          [
            -77.38703414797783,
            -9.416453149169687
          ],
          [
            -77.38705459982157,
            -9.416473098099239
          ],
          [
            -77.3871342279017,
            -9.416516348719588
          ]
        ]
      }
    }
  ]
}