<?xml version="1.0" encoding="UTF-8"?>
<kml xmlns="http://www.opengis.net/kml/2.2">
  <Document>
    <name>2008 Boundary Waters Trip</name>
    <description>Vance, Jim, Mike S. Roman, Patrick</description>
    <Style id="icon-1573-0F9D58-nodesc-normal">
      <IconStyle>
        <color>ff589d0f</color>
        <scale>1</scale>
        <Icon>
          <href>http://www.gstatic.com/mapspro/images/stock/503-wht-blank_maps.png</href>
        </Icon>
      </IconStyle>
      <LabelStyle>
        <scale>0</scale>
      </LabelStyle>
      <BalloonStyle>
        <text><![CDATA[<h3>$[name]</h3>]]></text>
      </BalloonStyle>
    </Style>
    <Style id="icon-1573-0F9D58-nodesc-highlight">
      <IconStyle>
        <color>ff589d0f</color>
        <scale>1</scale>
        <Icon>
          <href>http://www.gstatic.com/mapspro/images/stock/503-wht-blank_maps.png</href>
        </Icon>
      </IconStyle>
      <LabelStyle>
        <scale>1</scale>
      </LabelStyle>
      <BalloonStyle>
        <text><![CDATA[<h3>$[name]</h3>]]></text>
      </BalloonStyle>
    </Style>
    <StyleMap id="icon-1573-0F9D58-nodesc">
      <Pair>
        <key>normal</key>
        <styleUrl>#icon-1573-0F9D58-nodesc-normal</styleUrl>
      </Pair>
      <Pair>
        <key>highlight</key>
        <styleUrl>#icon-1573-0F9D58-nodesc-highlight</styleUrl>
      </Pair>
    </StyleMap>
    <Style id="icon-1577-0F9D58-normal">
      <IconStyle>
        <color>ff589d0f</color>
        <scale>1</scale>
        <Icon>
          <href>http://www.gstatic.com/mapspro/images/stock/503-wht-blank_maps.png</href>
        </Icon>
      </IconStyle>
      <LabelStyle>
        <scale>0</scale>
      </LabelStyle>
    </Style>
    <Style id="icon-1577-0F9D58-highlight">
      <IconStyle>
        <color>ff589d0f</color>
        <scale>1</scale>
        <Icon>
          <href>http://www.gstatic.com/mapspro/images/stock/503-wht-blank_maps.png</href>
        </Icon>
      </IconStyle>
      <LabelStyle>
        <scale>1</scale>
      </LabelStyle>
    </Style>
    <StyleMap id="icon-1577-0F9D58">
      <Pair>
        <key>normal</key>
        <styleUrl>#icon-1577-0F9D58-normal</styleUrl>
      </Pair>
      <Pair>
        <key>highlight</key>
        <styleUrl>#icon-1577-0F9D58-highlight</styleUrl>
      </Pair>
    </StyleMap>
    <Style id="icon-1899-0288D1-normal">
      <IconStyle>
        <color>ffd18802</color>
        <scale>1</scale>
        <Icon>
          <href>http://www.gstatic.com/mapspro/images/stock/503-wht-blank_maps.png</href>
        </Icon>
        <hotSpot x="32" xunits="pixels" y="64" yunits="insetPixels"/>
      </IconStyle>
      <LabelStyle>
        <scale>0</scale>
      </LabelStyle>
    </Style>
    <Style id="icon-1899-0288D1-highlight">
      <IconStyle>
        <color>ffd18802</color>
        <scale>1</scale>
        <Icon>
          <href>http://www.gstatic.com/mapspro/images/stock/503-wht-blank_maps.png</href>
        </Icon>
        <hotSpot x="32" xunits="pixels" y="64" yunits="insetPixels"/>
      </IconStyle>
      <LabelStyle>
        <scale>1</scale>
      </LabelStyle>
    </Style>
    <StyleMap id="icon-1899-0288D1">
      <Pair>
        <key>normal</key>
        <styleUrl>#icon-1899-0288D1-normal</styleUrl>
      </Pair>
      <Pair>
        <key>highlight</key>
        <styleUrl>#icon-1899-0288D1-highlight</styleUrl>
      </Pair>
    </StyleMap>
    <Style id="icon-1899-0288D1-nodesc-normal">
      <IconStyle>
        <color>ffd18802</color>
        <scale>1</scale>
        <Icon>
          <href>http://www.gstatic.com/mapspro/images/stock/503-wht-blank_maps.png</href>
        </Icon>
        <hotSpot x="32" xunits="pixels" y="64" yunits="insetPixels"/>
      </IconStyle>
      <LabelStyle>
        <scale>0</scale>
      </LabelStyle>
      <BalloonStyle>
        <text><![CDATA[<h3>$[name]</h3>]]></text>
      </BalloonStyle>
    </Style>
    <Style id="icon-1899-0288D1-nodesc-highlight">
      <IconStyle>
        <color>ffd18802</color>
        <scale>1</scale>
        <Icon>
          <href>http://www.gstatic.com/mapspro/images/stock/503-wht-blank_maps.png</href>
        </Icon>
        <hotSpot x="32" xunits="pixels" y="64" yunits="insetPixels"/>
      </IconStyle>
      <LabelStyle>
        <scale>1</scale>
      </LabelStyle>
      <BalloonStyle>
        <text><![CDATA[<h3>$[name]</h3>]]></text>
      </BalloonStyle>
    </Style>
    <StyleMap id="icon-1899-0288D1-nodesc">
      <Pair>
        <key>normal</key>
        <styleUrl>#icon-1899-0288D1-nodesc-normal</styleUrl>
      </Pair>
      <Pair>
        <key>highlight</key>
        <styleUrl>#icon-1899-0288D1-nodesc-highlight</styleUrl>
      </Pair>
    </StyleMap>
    <Style id="line-000000-1200-nodesc-normal">
      <LineStyle>
        <color>ff000000</color>
        <width>1.2</width>
      </LineStyle>
      <BalloonStyle>
        <text><![CDATA[<h3>$[name]</h3>]]></text>
      </BalloonStyle>
    </Style>
    <Style id="line-000000-1200-nodesc-highlight">
      <LineStyle>
        <color>ff000000</color>
        <width>1.8</width>
      </LineStyle>
      <BalloonStyle>
        <text><![CDATA[<h3>$[name]</h3>]]></text>
      </BalloonStyle>
    </Style>
    <StyleMap id="line-000000-1200-nodesc">
      <Pair>
        <key>normal</key>
        <styleUrl>#line-000000-1200-nodesc-normal</styleUrl>
      </Pair>
      <Pair>
        <key>highlight</key>
        <styleUrl>#line-000000-1200-nodesc-highlight</styleUrl>
      </Pair>
    </StyleMap>
    <Folder>
      <name>Route</name>
      <Placemark>
        <name>Hungry Jack Lake Entry Point</name>
        <description>48.05527413,-90.44649061</description>
        <styleUrl>#icon-1899-0288D1</styleUrl>
        <Point>
          <coordinates>
            -90.44649061,48.05527413,0
          </coordinates>
        </Point>
      </Placemark>
      <Placemark>
        <name>Day 1</name>
        <styleUrl>#line-000000-1200-nodesc</styleUrl>
        <LineString>
          <tessellate>1</tessellate>
          <coordinates>
            -90.4472631,48.055741,0
            -90.4506105,48.0568884,0
            -90.454387,48.0575768,0
            -90.4591936,48.0586668,0
            -90.4619401,48.059642,0
            -90.4632276,48.0603304,0
            -90.4652875,48.0613056,0
            -90.4667467,48.0629691,0
            -90.4671758,48.064059,0
            -90.4680341,48.0658945,0
            -90.4678625,48.0677299,0
            -90.4677766,48.068705,0
            -90.4684633,48.0693359,0
            -90.4684633,48.0699668,0
            -90.4666608,48.0714579,0
            -90.4516405,48.0845613,0
            -90.4456323,48.0905241,0
            -90.4446023,48.0930466,0
            -90.4423707,48.0944224,0
            -90.4303544,48.097174,0
            -90.421943,48.0982059,0
            -90.4188531,48.0994669,0
            -90.4155916,48.1010719,0
            -90.4125017,48.1014158,0
            -90.410785,48.1017597,0
          </coordinates>
        </LineString>
      </Placemark>
      <Placemark>
        <name>First Night Campsite</name>
        <description>48.10187419,-90.40683171</description>
        <styleUrl>#icon-1899-0288D1</styleUrl>
        <Point>
          <coordinates>
            -90.40683171,48.10187419,0
          </coordinates>
        </Point>
      </Placemark>
      <Placemark>
        <name>Day 2</name>
        <styleUrl>#line-000000-1200-nodesc</styleUrl>
        <LineString>
          <tessellate>1</tessellate>
          <coordinates>
            -90.4062877,48.1020817,0
            -90.4053865,48.1021677,0
            -90.4017387,48.1023969,0
            -90.3982626,48.102311,0
            -90.3967176,48.1018238,0
            -90.3963314,48.1011933,0
            -90.3951298,48.1008493,0
            -90.3942714,48.1005054,0
            -90.3937994,48.1001615,0
            -90.392984,48.1000182,0
            -90.3914819,48.0998749,0
            -90.3905378,48.0997316,0
            -90.3901516,48.099617,0
            -90.3896366,48.099273,0
            -90.389422,48.0990151,0
            -90.3886066,48.0984705,0
            -90.3876625,48.0980119,0
            -90.3868471,48.0977827,0
            -90.3865467,48.0968082,0
            -90.3862463,48.0960916,0
            -90.3858171,48.0951457,0
            -90.3846155,48.0941425,0
            -90.3831993,48.0936552,0
            -90.3824268,48.0930533,0
            -90.3817402,48.0927093,0
            -90.3810106,48.092566,0
            -90.3798519,48.0920787,0
            -90.3784786,48.0919354,0
            -90.3773628,48.0918494,0
            -90.3764616,48.0913907,0
            -90.3754316,48.0909894,0
            -90.3745304,48.0907028,0
            -90.3734575,48.0907028,0
            -90.3725134,48.0908748,0
            -90.3723846,48.0913047,0
            -90.3725134,48.091964,0
            -90.3729425,48.092394,0
            -90.3733288,48.0933113,0
            -90.3730713,48.0938272,0
            -90.3722988,48.0936839,0
            -90.3716121,48.0936552,0
            -90.3707109,48.0936839,0
            -90.369681,48.0937126,0
            -90.368651,48.0938272,0
            -90.3677498,48.0943145,0
            -90.3667198,48.0944291,0
            -90.3570638,48.0943432,0
            -90.3544031,48.0948304,0
            -90.352944,48.0948878,0
            -90.3511844,48.0946298,0
            -90.3477512,48.0941425,0
            -90.3449188,48.0941712,0
            -90.3438459,48.0945151,0
            -90.3433309,48.0951171,0
            -90.3406702,48.0956043,0
            -90.3386532,48.0962636,0
            -90.3377949,48.0971234,0
            -90.337237,48.0985852,0
            -90.3353487,48.1005198,0
            -90.3324304,48.1017235,0
            -90.3269373,48.1026979,0
            -90.3205,48.103271,0
            -90.3131185,48.1051625,0
            -90.3086553,48.1059075,0
            -90.3062521,48.105449,0
            -90.3043638,48.1049905,0
            -90.3039346,48.1042454,0
            -90.3020464,48.1035003,0
            -90.2986131,48.1025832,0
            -90.2979265,48.1022393,0
            -90.2948795,48.1003191,0
            -90.2920471,48.0988861,0
            -90.2891718,48.0988574,0
            -90.2852236,48.0996026,0
            -90.2822624,48.0999752,0
            -90.2803741,48.1002905,0
          </coordinates>
        </LineString>
      </Placemark>
      <Placemark>
        <name>Second Night Campsite</name>
        <styleUrl>#icon-1899-0288D1-nodesc</styleUrl>
        <Point>
          <coordinates>
            -90.279961,48.100086,0
          </coordinates>
        </Point>
      </Placemark>
      <Placemark>
        <name>Day 3</name>
        <styleUrl>#line-000000-1200-nodesc</styleUrl>
        <LineString>
          <tessellate>1</tessellate>
          <coordinates>
            -90.2803741,48.1002905,0
            -90.2881033,48.0983093,0
            -90.2890474,48.0976788,0
            -90.2906782,48.0964176,0
            -90.2909357,48.0942966,0
            -90.290249,48.0929207,0
            -90.2882749,48.0918888,0
            -90.2747995,48.0863562,0
            -90.268963,48.0831453,0
            -90.2620966,48.0840627,0
            -90.2569467,48.0849801,0
            -90.2452737,48.0847508,0
            -90.2411539,48.0849801,0
            -90.2270776,48.0861268,0
            -90.2184946,48.0868149,0
            -90.2095682,48.0847508,0
            -90.1937752,48.0879062,0
            -90.1867374,48.0869297,0
            -90.1826174,48.087675,0
            -90.1783258,48.0877322,0
            -90.1616747,48.0799342,0
            -90.1521473,48.0782142,0
            -90.1433069,48.0783286,0
            -90.1221477,48.0776121,0
          </coordinates>
        </LineString>
      </Placemark>
      <Placemark>
        <name><![CDATA[Third & Fourth Night Campsite]]></name>
        <description>48.07761206,-90.12214773</description>
        <styleUrl>#icon-1899-0288D1</styleUrl>
        <Point>
          <coordinates>
            -90.12214773,48.07761206,0
          </coordinates>
        </Point>
      </Placemark>
      <Placemark>
        <name>Fourth Day</name>
        <styleUrl>#line-000000-1200-nodesc</styleUrl>
        <LineString>
          <tessellate>1</tessellate>
          <coordinates>
            -90.1221477,48.0776121,0
            -90.1277296,48.0751916,0
            -90.1297895,48.0779443,0
            -90.1404325,48.0786324,0
            -90.148329,48.0786324,0
            -90.1555387,48.0786324,0
            -90.1616747,48.0799342,0
            -90.1665251,48.0800086,0
            -90.1713316,48.0717506,0
            -90.1730482,48.0648679,0
            -90.1967375,48.0646385,0
            -90.2272932,48.0637207,0
            -90.2458326,48.0637207,0
            -90.2544157,48.064409,0
            -90.2585356,48.0676211,0
            -90.2660887,48.0692271,0
            -90.2736418,48.0694565,0
            -90.2825682,48.070833,0
            -90.2870314,48.073127,0
            -90.2746717,48.0823023,0
            -90.277075,48.0850546,0
            -90.2870314,48.0891827,0
            -90.2918379,48.0905586,0
            -90.2990477,48.088036,0
            -90.3031675,48.088036,0
            -90.310034,48.088036,0
            -90.3223936,48.0878067,0
            -90.3340666,48.0871187,0
            -90.3450097,48.0859532,0
          </coordinates>
        </LineString>
      </Placemark>
      <Placemark>
        <name>Fifth Night Campsite</name>
        <description>48.08595316,-90.34500974</description>
        <styleUrl>#icon-1899-0288D1</styleUrl>
        <Point>
          <coordinates>
            -90.34500974,48.08595316,0
          </coordinates>
        </Point>
      </Placemark>
      <Placemark>
        <name>Exit</name>
        <styleUrl>#icon-1899-0288D1-nodesc</styleUrl>
        <Point>
          <coordinates>
            -90.3685425,48.07519272,0
          </coordinates>
        </Point>
      </Placemark>
      <Placemark>
        <name>Last Day</name>
        <styleUrl>#line-000000-1200-nodesc</styleUrl>
        <LineString>
          <tessellate>1</tessellate>
          <coordinates>
            -90.3450097,48.0859532,0
            -90.352063,48.0816662,0
            -90.3561829,48.0791432,0
            -90.3611611,48.075473,0
            -90.3645943,48.0745554,0
            -90.3685425,48.0751927,0
          </coordinates>
        </LineString>
      </Placemark>
    </Folder>
    <Folder>
      <name>Important Points</name>
      <Placemark>
        <name>Berries</name>
        <description>Jim, Patrick, and Roman Picked Berries on this trail</description>
        <styleUrl>#icon-1577-0F9D58</styleUrl>
        <Point>
          <coordinates>
            -90.0960777,48.0763107,0
          </coordinates>
        </Point>
      </Placemark>
      <Placemark>
        <name>Big Bass</name>
        <styleUrl>#icon-1573-0F9D58-nodesc</styleUrl>
        <Point>
          <coordinates>
            -90.1143167,48.0732712,0
          </coordinates>
        </Point>
      </Placemark>
      <Placemark>
        <name>Tons of Bass</name>
        <styleUrl>#icon-1573-0F9D58-nodesc</styleUrl>
        <Point>
          <coordinates>
            -90.3625122,48.0953231,0
          </coordinates>
        </Point>
      </Placemark>
    </Folder>
  </Document>
</kml>
