{"type": "FeatureCollection", "features": [{"type": "Feature", "geometry": {"type": "Point", "coordinates": [-111.85607539640024, 37.214435174396925]}, "properties": {"area": "02-ranch", "id": "A", "label": "A / ~70m lower ground", "drop_m_rounded_5": 70, "radius_m": 100, "cell_m": 15.002768287577597, "cell_slope_percent": 60.3, "interpretation": "Trail raster-cell elevation minus lowest modeled ground within 100m; not cliff height or trail grade."}}, {"type": "Feature", "geometry": {"type": "Point", "coordinates": [-111.90465647721541, 37.24720581068411]}, "properties": {"area": "02-ranch", "id": "B", "label": "B / ~65m lower ground", "drop_m_rounded_5": 65, "radius_m": 100, "cell_m": 15.002768287577597, "cell_slope_percent": 44.1, "interpretation": "Trail raster-cell elevation minus lowest modeled ground within 100m; not cliff height or trail grade."}}, {"type": "Feature", "geometry": {"type": "Point", "coordinates": [-111.84676780907945, 37.24398269332269]}, "properties": {"area": "02-ranch", "id": "C", "label": "C / ~50m lower ground", "drop_m_rounded_5": 50, "radius_m": 100, "cell_m": 15.002768287577597, "cell_slope_percent": 5.4, "interpretation": "Trail raster-cell elevation minus lowest modeled ground within 100m; not cliff height or trail grade."}}, {"type": "Feature", "geometry": {"type": "Point", "coordinates": [-112.7649561038619, 37.1756940811106]}, "properties": {"area": "03-mount-carmel", "id": "A", "label": "A / ~95m lower ground", "drop_m_rounded_5": 95, "radius_m": 100, "cell_m": 10.0, "cell_slope_percent": 19.6, "interpretation": "Trail raster-cell elevation minus lowest modeled ground within 100m; not cliff height or trail grade."}}, {"type": "Feature", "geometry": {"type": "Point", "coordinates": [-112.79963886644377, 37.1990565271568]}, "properties": {"area": "03-mount-carmel", "id": "B", "label": "B / ~80m lower ground", "drop_m_rounded_5": 80, "radius_m": 100, "cell_m": 10.0, "cell_slope_percent": 141.5, "interpretation": "Trail raster-cell elevation minus lowest modeled ground within 100m; not cliff height or trail grade."}}, {"type": "Feature", "geometry": {"type": "Point", "coordinates": [-112.71420596570798, 37.24755202976045]}, "properties": {"area": "03-mount-carmel", "id": "C", "label": "C / ~50m lower ground", "drop_m_rounded_5": 50, "radius_m": 100, "cell_m": 10.0, "cell_slope_percent": 27.7, "interpretation": "Trail raster-cell elevation minus lowest modeled ground within 100m; not cliff height or trail grade."}}, {"type": "Feature", "geometry": {"type": "Point", "coordinates": [-112.32228594519526, 37.72107233292337]}, "properties": {"area": "04-red-canyon", "id": "A", "label": "A / ~65m lower ground", "drop_m_rounded_5": 65, "radius_m": 100, "cell_m": 13.75, "cell_slope_percent": 13.9, "interpretation": "Trail raster-cell elevation minus lowest modeled ground within 100m; not cliff height or trail grade."}}, {"type": "Feature", "geometry": {"type": "Point", "coordinates": [-112.2845010199056, 37.80055400409432]}, "properties": {"area": "04-red-canyon", "id": "B", "label": "B / ~60m lower ground", "drop_m_rounded_5": 60, "radius_m": 100, "cell_m": 13.75, "cell_slope_percent": 60.9, "interpretation": "Trail raster-cell elevation minus lowest modeled ground within 100m; not cliff height or trail grade."}}, {"type": "Feature", "geometry": {"type": "Point", "coordinates": [-112.26795379753452, 37.773593878799]}, "properties": {"area": "04-red-canyon", "id": "C", "label": "C / ~60m lower ground", "drop_m_rounded_5": 60, "radius_m": 100, "cell_m": 13.75, "cell_slope_percent": 35.4, "interpretation": "Trail raster-cell elevation minus lowest modeled ground within 100m; not cliff height or trail grade."}}]}
