{
  "type": "FeatureCollection",
  "features": [
    {
      "type": "Feature",
      "geometry": {
        "type": "Point",
        "coordinates": [
          -111.6022,
          36.8644
        ]
      },
      "properties": {
        "id": "USC00024849",
        "name": "LEES FERRY, AZ US",
        "elevation_m": 978.4,
        "elevation_ft": 3210,
        "normal_period": "1991-2020",
        "oct_snowfall_in": 0.0,
        "oct_snow_depth_day_frequency_pct": null,
        "oct15_snow_depth_ge_1_inch_pct": null,
        "m01_snowfall_in": 0.1,
        "m01_snwd_day_pct": null,
        "m01_snwd_years": null,
        "m01_snwd_flag": null,
        "m02_snowfall_in": 0.0,
        "m02_snwd_day_pct": null,
        "m02_snwd_years": null,
        "m02_snwd_flag": null,
        "m03_snowfall_in": 0.0,
        "m03_snwd_day_pct": null,
        "m03_snwd_years": null,
        "m03_snwd_flag": null,
        "m04_snowfall_in": 0.0,
        "m04_snwd_day_pct": null,
        "m04_snwd_years": null,
        "m04_snwd_flag": null,
        "m05_snowfall_in": 0.0,
        "m05_snwd_day_pct": null,
        "m05_snwd_years": null,
        "m05_snwd_flag": null,
        "m06_snowfall_in": 0.0,
        "m06_snwd_day_pct": null,
        "m06_snwd_years": null,
        "m06_snwd_flag": null,
        "m07_snowfall_in": 0.0,
        "m07_snwd_day_pct": null,
        "m07_snwd_years": null,
        "m07_snwd_flag": null,
        "m08_snowfall_in": 0.0,
        "m08_snwd_day_pct": null,
        "m08_snwd_years": null,
        "m08_snwd_flag": null,
        "m09_snowfall_in": 0.0,
        "m09_snwd_day_pct": null,
        "m09_snwd_years": null,
        "m09_snwd_flag": null,
        "m10_snowfall_in": 0.0,
        "m10_snwd_day_pct": null,
        "m10_snwd_years": null,
        "m10_snwd_flag": null,
        "m11_snowfall_in": 0.1,
        "m11_snwd_day_pct": null,
        "m11_snwd_years": null,
        "m11_snwd_flag": null,
        "m12_snowfall_in": 0.1,
        "m12_snwd_day_pct": null,
        "m12_snwd_years": null,
        "m12_snwd_flag": null
      }
    },
    {
      "type": "Feature",
      "geometry": {
        "type": "Point",
        "coordinates": [
          -111.4483,
          36.9208
        ]
      },
      "properties": {
        "id": "USC00026180",
        "name": "PAGE, AZ US",
        "elevation_m": 1301.5,
        "elevation_ft": 4270,
        "normal_period": "1991-2020",
        "oct_snowfall_in": 0.0,
        "oct_snow_depth_day_frequency_pct": 0.0,
        "oct15_snow_depth_ge_1_inch_pct": 0.0,
        "m01_snowfall_in": 1.4,
        "m01_snwd_day_pct": 0.0,
        "m01_snwd_years": 17,
        "m01_snwd_flag": "P",
        "m02_snowfall_in": 0.4,
        "m02_snwd_day_pct": 0.0,
        "m02_snwd_years": 21,
        "m02_snwd_flag": "P",
        "m03_snowfall_in": 0.2,
        "m03_snwd_day_pct": 0.645,
        "m03_snwd_years": 20,
        "m03_snwd_flag": "P",
        "m04_snowfall_in": 0.1,
        "m04_snwd_day_pct": 0.0,
        "m04_snwd_years": 20,
        "m04_snwd_flag": "P",
        "m05_snowfall_in": 0.0,
        "m05_snwd_day_pct": 0.0,
        "m05_snwd_years": 20,
        "m05_snwd_flag": "P",
        "m06_snowfall_in": 0.0,
        "m06_snwd_day_pct": 0.0,
        "m06_snwd_years": 20,
        "m06_snwd_flag": "P",
        "m07_snowfall_in": 0.0,
        "m07_snwd_day_pct": 0.0,
        "m07_snwd_years": 21,
        "m07_snwd_flag": "P",
        "m08_snowfall_in": 0.0,
        "m08_snwd_day_pct": 0.0,
        "m08_snwd_years": 21,
        "m08_snwd_flag": "P",
        "m09_snowfall_in": 0.0,
        "m09_snwd_day_pct": 0.0,
        "m09_snwd_years": 20,
        "m09_snwd_flag": "P",
        "m10_snowfall_in": 0.0,
        "m10_snwd_day_pct": 0.0,
        "m10_snwd_years": 19,
        "m10_snwd_flag": "P",
        "m11_snowfall_in": 0.0,
        "m11_snwd_day_pct": 0.0,
        "m11_snwd_years": 21,
        "m11_snwd_flag": "P",
        "m12_snowfall_in": 1.0,
        "m12_snwd_day_pct": 0.323,
        "m12_snwd_years": 18,
        "m12_snwd_flag": "P"
      }
    },
    {
      "type": "Feature",
      "geometry": {
        "type": "Point",
        "coordinates": [
          -112.4819,
          37.4403
        ]
      },
      "properties": {
        "id": "USC00420086",
        "name": "ALTON, UT US",
        "elevation_m": 2163.5,
        "elevation_ft": 7098,
        "normal_period": "1991-2020",
        "oct_snowfall_in": 2.0,
        "oct_snow_depth_day_frequency_pct": 1.935,
        "oct15_snow_depth_ge_1_inch_pct": 1.4,
        "m01_snowfall_in": 17.8,
        "m01_snwd_day_pct": 70.0,
        "m01_snwd_years": 28,
        "m01_snwd_flag": "S",
        "m02_snowfall_in": 18.7,
        "m02_snwd_day_pct": 66.863,
        "m02_snwd_years": 30,
        "m02_snwd_flag": "S",
        "m03_snowfall_in": 12.6,
        "m03_snwd_day_pct": 44.839,
        "m03_snwd_years": 29,
        "m03_snwd_flag": "S",
        "m04_snowfall_in": 5.2,
        "m04_snwd_day_pct": 7.333,
        "m04_snwd_years": 30,
        "m04_snwd_flag": "S",
        "m05_snowfall_in": 0.3,
        "m05_snwd_day_pct": 0.0,
        "m05_snwd_years": 30,
        "m05_snwd_flag": "S",
        "m06_snowfall_in": 0.4,
        "m06_snwd_day_pct": 0.0,
        "m06_snwd_years": 30,
        "m06_snwd_flag": "S",
        "m07_snowfall_in": 0.0,
        "m07_snwd_day_pct": 0.0,
        "m07_snwd_years": 29,
        "m07_snwd_flag": "S",
        "m08_snowfall_in": 0.0,
        "m08_snwd_day_pct": 0.0,
        "m08_snwd_years": 30,
        "m08_snwd_flag": "S",
        "m09_snowfall_in": 0.0,
        "m09_snwd_day_pct": 0.0,
        "m09_snwd_years": 30,
        "m09_snwd_flag": "S",
        "m10_snowfall_in": 2.0,
        "m10_snwd_day_pct": 1.935,
        "m10_snwd_years": 29,
        "m10_snwd_flag": "S",
        "m11_snowfall_in": 6.4,
        "m11_snwd_day_pct": 11.667,
        "m11_snwd_years": 29,
        "m11_snwd_flag": "S",
        "m12_snowfall_in": 14.1,
        "m12_snwd_day_pct": 46.129,
        "m12_snwd_years": 27,
        "m12_snwd_flag": "S"
      }
    },
    {
      "type": "Feature",
      "geometry": {
        "type": "Point",
        "coordinates": [
          -112.1703,
          37.6411
        ]
      },
      "properties": {
        "id": "USC00421008",
        "name": "BRYCE CANYON NP HQRS, UT US",
        "elevation_m": 2404.9,
        "elevation_ft": 7890,
        "normal_period": "1991-2020",
        "oct_snowfall_in": 3.0,
        "oct_snow_depth_day_frequency_pct": 3.548,
        "oct15_snow_depth_ge_1_inch_pct": 3.3,
        "m01_snowfall_in": 19.8,
        "m01_snwd_day_pct": 94.516,
        "m01_snwd_years": 28,
        "m01_snwd_flag": "S",
        "m02_snowfall_in": 18.1,
        "m02_snwd_day_pct": 91.627,
        "m02_snwd_years": 29,
        "m02_snwd_flag": "S",
        "m03_snowfall_in": 13.2,
        "m03_snwd_day_pct": 71.613,
        "m03_snwd_years": 30,
        "m03_snwd_flag": "S",
        "m04_snowfall_in": 5.9,
        "m04_snwd_day_pct": 19.667,
        "m04_snwd_years": 29,
        "m04_snwd_flag": "S",
        "m05_snowfall_in": 1.5,
        "m05_snwd_day_pct": 1.935,
        "m05_snwd_years": 30,
        "m05_snwd_flag": "S",
        "m06_snowfall_in": 0.2,
        "m06_snwd_day_pct": 0.0,
        "m06_snwd_years": 27,
        "m06_snwd_flag": "S",
        "m07_snowfall_in": 0.0,
        "m07_snwd_day_pct": 0.0,
        "m07_snwd_years": 28,
        "m07_snwd_flag": "S",
        "m08_snowfall_in": 0.0,
        "m08_snwd_day_pct": 0.0,
        "m08_snwd_years": 27,
        "m08_snwd_flag": "S",
        "m09_snowfall_in": 0.0,
        "m09_snwd_day_pct": 0.0,
        "m09_snwd_years": 28,
        "m09_snwd_flag": "S",
        "m10_snowfall_in": 3.0,
        "m10_snwd_day_pct": 3.548,
        "m10_snwd_years": 28,
        "m10_snwd_flag": "S",
        "m11_snowfall_in": 9.7,
        "m11_snwd_day_pct": 31.333,
        "m11_snwd_years": 29,
        "m11_snwd_flag": "S",
        "m12_snowfall_in": 15.3,
        "m12_snwd_day_pct": 81.613,
        "m12_snwd_years": 28,
        "m12_snwd_flag": "S"
      }
    },
    {
      "type": "Feature",
      "geometry": {
        "type": "Point",
        "coordinates": [
          -111.5978,
          37.7686
        ]
      },
      "properties": {
        "id": "USC00422592",
        "name": "ESCALANTE, UT US",
        "elevation_m": 1770.9,
        "elevation_ft": 5810,
        "normal_period": "1991-2020",
        "oct_snowfall_in": 0.1,
        "oct_snow_depth_day_frequency_pct": 0.0,
        "oct15_snow_depth_ge_1_inch_pct": null,
        "m01_snowfall_in": 8.9,
        "m01_snwd_day_pct": 38.387,
        "m01_snwd_years": 30,
        "m01_snwd_flag": "S",
        "m02_snowfall_in": 5.8,
        "m02_snwd_day_pct": 20.873,
        "m02_snwd_years": 29,
        "m02_snwd_flag": "S",
        "m03_snowfall_in": 2.2,
        "m03_snwd_day_pct": 3.548,
        "m03_snwd_years": 30,
        "m03_snwd_flag": "S",
        "m04_snowfall_in": 1.4,
        "m04_snwd_day_pct": 0.333,
        "m04_snwd_years": 30,
        "m04_snwd_flag": "S",
        "m05_snowfall_in": 0.0,
        "m05_snwd_day_pct": 0.0,
        "m05_snwd_years": 30,
        "m05_snwd_flag": "S",
        "m06_snowfall_in": 0.0,
        "m06_snwd_day_pct": 0.0,
        "m06_snwd_years": 30,
        "m06_snwd_flag": "S",
        "m07_snowfall_in": 0.0,
        "m07_snwd_day_pct": 0.0,
        "m07_snwd_years": 29,
        "m07_snwd_flag": "S",
        "m08_snowfall_in": 0.0,
        "m08_snwd_day_pct": 0.0,
        "m08_snwd_years": 30,
        "m08_snwd_flag": "S",
        "m09_snowfall_in": 0.0,
        "m09_snwd_day_pct": 0.0,
        "m09_snwd_years": 30,
        "m09_snwd_flag": "S",
        "m10_snowfall_in": 0.1,
        "m10_snwd_day_pct": 0.0,
        "m10_snwd_years": 29,
        "m10_snwd_flag": "S",
        "m11_snowfall_in": 1.9,
        "m11_snwd_day_pct": 2.667,
        "m11_snwd_years": 30,
        "m11_snwd_flag": "S",
        "m12_snowfall_in": 5.2,
        "m12_snwd_day_pct": 19.032,
        "m12_snwd_years": 29,
        "m12_snwd_flag": "S"
      }
    },
    {
      "type": "Feature",
      "geometry": {
        "type": "Point",
        "coordinates": [
          -112.5361,
          37.0286
        ]
      },
      "properties": {
        "id": "USC00424508",
        "name": "KANAB, UT US",
        "elevation_m": 1493.5,
        "elevation_ft": 4900,
        "normal_period": "1991-2020",
        "oct_snowfall_in": 0.2,
        "oct_snow_depth_day_frequency_pct": 0.0,
        "oct15_snow_depth_ge_1_inch_pct": 0.1,
        "m01_snowfall_in": 5.4,
        "m01_snwd_day_pct": 15.806,
        "m01_snwd_years": 27,
        "m01_snwd_flag": "S",
        "m02_snowfall_in": 5.8,
        "m02_snwd_day_pct": 6.722,
        "m02_snwd_years": 27,
        "m02_snwd_flag": "S",
        "m03_snowfall_in": 1.8,
        "m03_snwd_day_pct": 2.258,
        "m03_snwd_years": 27,
        "m03_snwd_flag": "S",
        "m04_snowfall_in": 1.8,
        "m04_snwd_day_pct": 0.667,
        "m04_snwd_years": 26,
        "m04_snwd_flag": "S",
        "m05_snowfall_in": 0.0,
        "m05_snwd_day_pct": 0.0,
        "m05_snwd_years": 27,
        "m05_snwd_flag": "S",
        "m06_snowfall_in": 0.0,
        "m06_snwd_day_pct": 0.0,
        "m06_snwd_years": 27,
        "m06_snwd_flag": "S",
        "m07_snowfall_in": 0.0,
        "m07_snwd_day_pct": 0.0,
        "m07_snwd_years": 27,
        "m07_snwd_flag": "S",
        "m08_snowfall_in": 0.0,
        "m08_snwd_day_pct": 0.0,
        "m08_snwd_years": 27,
        "m08_snwd_flag": "S",
        "m09_snowfall_in": 0.0,
        "m09_snwd_day_pct": 0.0,
        "m09_snwd_years": 27,
        "m09_snwd_flag": "S",
        "m10_snowfall_in": 0.2,
        "m10_snwd_day_pct": 0.0,
        "m10_snwd_years": 27,
        "m10_snwd_flag": "S",
        "m11_snowfall_in": 1.8,
        "m11_snwd_day_pct": 2.0,
        "m11_snwd_years": 28,
        "m11_snwd_flag": "S",
        "m12_snowfall_in": 5.3,
        "m12_snwd_day_pct": 10.0,
        "m12_snwd_years": 27,
        "m12_snwd_flag": "S"
      }
    },
    {
      "type": "Feature",
      "geometry": {
        "type": "Point",
        "coordinates": [
          -111.9883,
          37.5142
        ]
      },
      "properties": {
        "id": "USC00424755",
        "name": "KODACHROME BASIN PARK, UT US",
        "elevation_m": 1769.4,
        "elevation_ft": 5805,
        "normal_period": "1991-2020",
        "oct_snowfall_in": 0.2,
        "oct_snow_depth_day_frequency_pct": 0.0,
        "oct15_snow_depth_ge_1_inch_pct": 0.1,
        "m01_snowfall_in": 5.9,
        "m01_snwd_day_pct": 36.774,
        "m01_snwd_years": 26,
        "m01_snwd_flag": "S",
        "m02_snowfall_in": 5.2,
        "m02_snwd_day_pct": 16.274,
        "m02_snwd_years": 27,
        "m02_snwd_flag": "S",
        "m03_snowfall_in": 2.3,
        "m03_snwd_day_pct": 5.161,
        "m03_snwd_years": 28,
        "m03_snwd_flag": "S",
        "m04_snowfall_in": 1.5,
        "m04_snwd_day_pct": 0.0,
        "m04_snwd_years": 30,
        "m04_snwd_flag": "S",
        "m05_snowfall_in": 0.2,
        "m05_snwd_day_pct": 0.0,
        "m05_snwd_years": 30,
        "m05_snwd_flag": "S",
        "m06_snowfall_in": 0.0,
        "m06_snwd_day_pct": 0.0,
        "m06_snwd_years": 30,
        "m06_snwd_flag": "S",
        "m07_snowfall_in": 0.0,
        "m07_snwd_day_pct": 0.0,
        "m07_snwd_years": 29,
        "m07_snwd_flag": "S",
        "m08_snowfall_in": 0.0,
        "m08_snwd_day_pct": 0.0,
        "m08_snwd_years": 30,
        "m08_snwd_flag": "S",
        "m09_snowfall_in": 0.0,
        "m09_snwd_day_pct": 0.0,
        "m09_snwd_years": 29,
        "m09_snwd_flag": "S",
        "m10_snowfall_in": 0.2,
        "m10_snwd_day_pct": 0.0,
        "m10_snwd_years": 29,
        "m10_snwd_flag": "S",
        "m11_snowfall_in": 1.5,
        "m11_snwd_day_pct": 1.667,
        "m11_snwd_years": 30,
        "m11_snwd_flag": "S",
        "m12_snowfall_in": 6.9,
        "m12_snwd_day_pct": 19.677,
        "m12_snwd_years": 28,
        "m12_snwd_flag": "S"
      }
    },
    {
      "type": "Feature",
      "geometry": {
        "type": "Point",
        "coordinates": [
          -112.4389,
          37.8156
        ]
      },
      "properties": {
        "id": "USC00426601",
        "name": "PANGUITCH, UT US",
        "elevation_m": 2026.0,
        "elevation_ft": 6647,
        "normal_period": "1991-2020",
        "oct_snowfall_in": 0.2,
        "oct_snow_depth_day_frequency_pct": null,
        "oct15_snow_depth_ge_1_inch_pct": null,
        "m01_snowfall_in": 7.8,
        "m01_snwd_day_pct": null,
        "m01_snwd_years": null,
        "m01_snwd_flag": null,
        "m02_snowfall_in": 6.1,
        "m02_snwd_day_pct": null,
        "m02_snwd_years": null,
        "m02_snwd_flag": null,
        "m03_snowfall_in": 3.3,
        "m03_snwd_day_pct": null,
        "m03_snwd_years": null,
        "m03_snwd_flag": null,
        "m04_snowfall_in": 1.1,
        "m04_snwd_day_pct": null,
        "m04_snwd_years": null,
        "m04_snwd_flag": null,
        "m05_snowfall_in": 0.1,
        "m05_snwd_day_pct": null,
        "m05_snwd_years": null,
        "m05_snwd_flag": null,
        "m06_snowfall_in": 0.0,
        "m06_snwd_day_pct": null,
        "m06_snwd_years": null,
        "m06_snwd_flag": null,
        "m07_snowfall_in": 0.0,
        "m07_snwd_day_pct": null,
        "m07_snwd_years": null,
        "m07_snwd_flag": null,
        "m08_snowfall_in": 0.0,
        "m08_snwd_day_pct": null,
        "m08_snwd_years": null,
        "m08_snwd_flag": null,
        "m09_snowfall_in": 0.0,
        "m09_snwd_day_pct": null,
        "m09_snwd_years": null,
        "m09_snwd_flag": null,
        "m10_snowfall_in": 0.2,
        "m10_snwd_day_pct": null,
        "m10_snwd_years": null,
        "m10_snwd_flag": null,
        "m11_snowfall_in": 2.1,
        "m11_snwd_day_pct": null,
        "m11_snwd_years": null,
        "m11_snwd_flag": null,
        "m12_snowfall_in": 4.0,
        "m12_snwd_day_pct": null,
        "m12_snwd_years": null,
        "m12_snwd_flag": null
      }
    },
    {
      "type": "Feature",
      "geometry": {
        "type": "Point",
        "coordinates": [
          -112.1456,
          37.7064
        ]
      },
      "properties": {
        "id": "USW00023159",
        "name": "BRYCE CANYON AP, UT US",
        "elevation_m": 2312.2,
        "elevation_ft": 7586,
        "normal_period": "1991-2020",
        "oct_snowfall_in": null,
        "oct_snow_depth_day_frequency_pct": null,
        "oct15_snow_depth_ge_1_inch_pct": null,
        "m01_snowfall_in": null,
        "m01_snwd_day_pct": null,
        "m01_snwd_years": null,
        "m01_snwd_flag": null,
        "m02_snowfall_in": null,
        "m02_snwd_day_pct": null,
        "m02_snwd_years": null,
        "m02_snwd_flag": null,
        "m03_snowfall_in": null,
        "m03_snwd_day_pct": null,
        "m03_snwd_years": null,
        "m03_snwd_flag": null,
        "m04_snowfall_in": null,
        "m04_snwd_day_pct": null,
        "m04_snwd_years": null,
        "m04_snwd_flag": null,
        "m05_snowfall_in": null,
        "m05_snwd_day_pct": null,
        "m05_snwd_years": null,
        "m05_snwd_flag": null,
        "m06_snowfall_in": null,
        "m06_snwd_day_pct": null,
        "m06_snwd_years": null,
        "m06_snwd_flag": null,
        "m07_snowfall_in": null,
        "m07_snwd_day_pct": null,
        "m07_snwd_years": null,
        "m07_snwd_flag": null,
        "m08_snowfall_in": null,
        "m08_snwd_day_pct": null,
        "m08_snwd_years": null,
        "m08_snwd_flag": null,
        "m09_snowfall_in": null,
        "m09_snwd_day_pct": null,
        "m09_snwd_years": null,
        "m09_snwd_flag": null,
        "m10_snowfall_in": null,
        "m10_snwd_day_pct": null,
        "m10_snwd_years": null,
        "m10_snwd_flag": null,
        "m11_snowfall_in": null,
        "m11_snwd_day_pct": null,
        "m11_snwd_years": null,
        "m11_snwd_flag": null,
        "m12_snowfall_in": null,
        "m12_snwd_day_pct": null,
        "m12_snwd_years": null,
        "m12_snwd_flag": null
      }
    }
  ]
}
